Category,menu link,link,title,phone,street,city,state,Zip,Menus,Hours,img 1,img 2,img 3,img 4,img 5,img 6,img 7,lat,lng
Restaurants,https://www.yellowpages.com/aberdeen-id/mip/aberdeen-country-kitchen-1496155#open-menu,https://www.yellowpages.com/aberdeen-id/mip/aberdeen-country-kitchen-1496155,Aberdeen Country Kitchen,(208) 397-4980,60 S Main,Aberdeen,ID,83210,"Country Breakfast, Signature Omelets, Breakfast Combos, From the Griddle and More!, Breakfast Sides, Hamburgers, CK Sandwiches & More, Dinner Entrees, Soup & Salad, Finger Foods, Desserts, Beverages, Aberdeen Country Kitchen", Hours- Mon - Fri:6:00 am - 8:00 pmSat:6:00 am - 3:00 pmSunClosed,https://i4.ypcdn.com/blob/88cfff9c2ac56463fe0e3c80270f44d34464de50_1000.jpg,,,,,,,42.9433896,-112.8390516
Restaurants,https://www.yellowpages.com/ammon-id/mip/texas-roadhouse-12318346#open-menu,https://www.yellowpages.com/ammon-id/mip/texas-roadhouse-12318346,Texas Roadhouse,(208) 542-9988,2535 S 25th E,Ammon,ID,83406,"Just For Starters, Salads, Hand-Cut Steaks, Fall-Off-The-Bone-Ribs, Texas Size Combos, Dockside Favorites, Chicken Specialties, Country Dinners, Burgers & Sandwiches, Sides & Extras, Kids & Ranger Meals, Beverages, Desserts, Texas Roadhouse", Hours- Mon - Thu:4:00 pm - 10:00 pmFri - Sat:12:00 pm - 11:00 pmSun:12:00 pm - 10:00 pm,https://i3.ypcdn.com/blob/3b47018c2b226c0efd61373ca785cfc8e62755eb_1000.jpg,https://i3.ypcdn.com/blob/e815cdb9adc28ca43d797edf30832c2796581f5f_1000.jpg,https://i2.ypcdn.com/blob/d65d81cf28fc3832c67dcbb6f26412ae7e135a4d_1000.jpg,https://i4.ypcdn.com/blob/b63e450cb7f9abc325158a913ac3eef4b3c7445d_1000.jpg,https://i1.ypcdn.com/blob/2fd6e12bf197eb629f273e9b1363fb05b55f607e_1000.jpg,https://i4.ypcdn.com/blob/1bf60b898dd2030d9a9ceb67462acedb4454ce6c_1000.jpg,https://i1.ypcdn.com/blob/623663f50390243ecb16f10000c8ffb663069809_1000.jpg,43.4746769,-111.9838412
Restaurants,https://www.yellowpages.com/ashton-id/mip/frostop-drive-in-1613063#open-menu,https://www.yellowpages.com/ashton-id/mip/frostop-drive-in-1613063,Frostop Drive In,(208) 652-7762,26 N Highway 20,Ashton,ID,83420,"Appetizers, Frostop Burger Basket, Chicken & Fish Combo Baskets, Soups & Salads, Sweet Cool Cold Stuff, Kids Menu, Frostop Drive In", Hours- Mon - Sun:10:00 am - 10:00 pm,https://i3.ypcdn.com/blob/abe4bb04eee7d2fb8a30232dbf59a8aa4fe81b45_1000.jpg,https://i1.ypcdn.com/blob/1af7727b15a3771549af4b9577be6e9fcd3ef09d_1000.jpg,https://i4.ypcdn.com/blob/bdbfd6e2e50993fb347aadd1f37a7d5c9656830c_1000.jpg,,,,,,
Restaurants,https://www.yellowpages.com/blackfoot-id/mip/papa-murphys-take-n-bake-pizza-1161539#open-menu,https://www.yellowpages.com/blackfoot-id/mip/papa-murphys-take-n-bake-pizza-1161539,Papa Murphy's | Take 'N' Bake Pizza,(208) 785-7272,977 Market St,Blackfoot,ID,83221,"Create Your Own, Specials & Deals, Specialty Pizzas, Calzones, Dairy-Free Cheese, Stuffed Pizzas, Family Friendly, Crustless Keto-Friendly Pizzas, Salads & Sides, Desserts & Drinks, Papa Murphy's | Take 'N' Bake Pizza", Hours- Mon - Thu:11:00 am - 8:30 pmFri - Sat:11:00 am - 9:30 pmSun:11:00 am - 8:30 pm,https://i2.ypcdn.com/blob/d32b86ebdceecc876732182225b62e592e17e8db_1000.jpg,https://i4.ypcdn.com/blob/c9ca723f2e0ec0876a7cfb2f0b4876e73482cc1b_1000.jpg,https://i2.ypcdn.com/blob/a0df7262ab5cace85e3b36cd7fd7b70ef6d7a54b_1000.jpg,https://i3.ypcdn.com/blob/793746b12554bdc4e2f85d82165d18f8321f08ed_1000.jpg,https://i4.ypcdn.com/blob/4e75b11f19adeb6c328510c83c2529bcba1e37d6_1000.jpg,https://i3.ypcdn.com/blob/49f2a79463a0ce17c808cc124408000ea5a32268_1000.jpg,https://i3.ypcdn.com/blob/29718af63a4b74ed6fe1d6352c273332377e0fae_1000.jpg,,
Restaurants,https://www.yellowpages.com/blackfoot-id/mip/subway-20302736#open-menu,https://www.yellowpages.com/blackfoot-id/mip/subway-20302736,Subway,(208) 785-1116,1350 Parkway Dr Ste 7-B,Blackfoot,ID,83221,"Sides, Deli Heroes, Chips, Wraps, Italianos, Fountain Drinks, Kids Drinks, Churro, Kids' Sides, Subway® Series, Clubs, Cheesesteaks, Cookies, Subway", Hours- Mon - Fri:7:00 am - 10:00 pmSat:8:00 am - 10:00 pmSun:9:00 am - 8:00 pm,https://i1.ypcdn.com/blob/feac5f277c3cd5382a7a572342f7e5015bb6e1b0_1000.jpg,https://i2.ypcdn.com/blob/63e212ce29d76a3eb8cfd0362acb8449295acaf7_1000.jpg,https://i2.ypcdn.com/blob/b7b33894ced11234f0fdebbe37d929e10a869bbd_1000.jpg,https://i2.ypcdn.com/blob/0c78aa26dba2b7d5a90f9efd0369d8a4003454f5_1000.jpg,https://i4.ypcdn.com/blob/0c0c8238c16b4af38164f8e8a0af4c6e3e9c09cf_1000.jpg,https://i3.ypcdn.com/blob/e93d64b9e7edfffe23dff053840d71753704d0ba_1000.jpg,,,
Restaurants,https://www.yellowpages.com/blackfoot-id/mip/taco-time-11789855#open-menu,https://www.yellowpages.com/blackfoot-id/mip/taco-time-11789855,Taco Time,(208) 785-2262,895 W Sexton St,Blackfoot,ID,83221,"Limited Time Offers, Crisp Burritos, Burritos, Favorites, Tacos, Salads, Value Menu, Sides, Dessert, Beverages, Sauce Packets, Taco Time", Hours- Mon - Sun:9:00 am - 9:30 pm,https://i2.ypcdn.com/blob/90a86c0e9d5b3d35aff715dea79b673bb1e57592_1000.jpg,,,,,,,,
Restaurants,https://www.yellowpages.com/boise-id/mip/americana-pizza-12940422#open-menu,https://www.yellowpages.com/boise-id/mip/americana-pizza-12940422,Americana Pizza,(208) 336-6432,304 S Americana Blvd,Boise,ID,83702,"Salads, Pizzas, Americana Pizza", Hours- Tue - Thu:11:30 am - 8:00 pmFri - Sat:11:30 am - 9:00 pm,,,,,,,,,
Restaurants,https://www.yellowpages.com/boise-id/mip/andys-deli-1295421#open-menu,https://www.yellowpages.com/boise-id/mip/andys-deli-1295421,Andy's Deli,(208) 336-5186,840 W Idaho St,Boise,ID,83702,"Soups & Salads, Andy's Specialty Sandwiches, Value Meals, Breakfast Sandwiches, Andys Milkshakes & Ice Cream Flavors, Andys Smoothies, Yogurt & Ice Crream, Steamy Drinks, Cool Drinks, Andy's Deli", Hours- Mon - Fri:8:00 am - 5:00 pm,,,,,,,,,
Restaurants,https://www.yellowpages.com/boise-id/mip/applebees-1531151#open-menu,https://www.yellowpages.com/boise-id/mip/applebees-1531151,Applebee's,(208) 378-1890,7845 W Emerald St,Boise,ID,83704,"Appetizers, Salads, Chicken, Pasta, Burgers, Applebee's", Hours- Mon - Sun:11:00 am - 12:00 am,https://i1.ypcdn.com/blob/f1f0b7a87c24cc3a037c386bfc556acbe6801032_1000.jpg,https://i1.ypcdn.com/blob/a98fe047acdbaaee8750e63a58af72c5be6f0798_1000.jpg,https://i4.ypcdn.com/blob/45080b3199ca8c90761c7465852fe4e350b2576c_1000.jpg,,,,,,
Restaurants,https://www.yellowpages.com/boise-id/mip/baguette-deli-22329223#open-menu,https://www.yellowpages.com/boise-id/mip/baguette-deli-22329223,Baguette Deli,(208) 336-2989,5204 W Franklin Rd,Boise,ID,83705,"Sandwiches (12""), Ciabatta, Spring Rolls, Mocha Freeze (20 Oz.), Beverages, Baguette Deli", Hours- Mon - Sat:9:00 am - 8:00 pmSun:9:00 am - 7:00 pm,,,,,,,,,
Restaurants,https://www.yellowpages.com/boise-id/mip/big-city-coffee-16731068#open-menu,https://www.yellowpages.com/boise-id/mip/big-city-coffee-16731068,Big City Coffee,(208) 345-3145,1416 W Grove St,Boise,ID,83702,"Sandwiches, Salads, Quiche, Soup, Specials, Big City Coffee", Hours- Mon - Sun:6:00 am - 4:00 pm,https://i3.ypcdn.com/blob/e0e16eb20d4a8c56f5e6268c66e9f547ac7a2481_1000.jpg,https://i2.ypcdn.com/blob/ceee8849832e35774b487d552fdbabe7a52e0133_1000.jpg,https://i4.ypcdn.com/blob/c0edf8f66cd2bb4428924a3fbba22b5e3987b097_1000.jpg,https://i1.ypcdn.com/blob/aa929be3e17b0ec25aaa4534cc597993ea4bc2bf_1000.jpg,https://i4.ypcdn.com/blob/a48cd8253909c0293672d6c1a57875a126eadb41_1000.jpg,https://i2.ypcdn.com/blob/1e520daba46ceb20f430ede8914726c6873f9eca_1000.jpg,,,
Restaurants,https://www.yellowpages.com/boise-id/mip/big-juds-1060788#open-menu,https://www.yellowpages.com/boise-id/mip/big-juds-1060788,Big Juds,(208) 343-4439,1289 S Protest Rd,Boise,ID,83706,"Man Size, Burgers, It's Party Time, Chicken Sandwiches, Dinner Baskets, Side Orders, Ice Cream, Drinks, Big Juds", Hours- Mon - Sat:11:00 am - 9:00 pmSunClosed,https://i3.ypcdn.com/blob/dab6a4c905c2fbd33e4bb445756b992394ff91bc_1000.jpg,https://i3.ypcdn.com/blob/add2f8d41926c02d5162c3f1a00dfc4af07901d2_1000.jpg,https://i1.ypcdn.com/blob/8d0c450ba71309292e865cf66c95e5af757ff143_1000.jpg,https://i4.ypcdn.com/blob/5a873520235cdeabd727e3f3cd9aa4cca290d7ff_1000.jpg,https://i3.ypcdn.com/blob/553fbf658dc703631eb9f9fb28c13bf830eb2088_1000.jpg,https://i2.ypcdn.com/blob/3f2731bf22bb694fd6ebe2851559ab69d9b431a7_1000.jpg,https://i3.ypcdn.com/blob/39bafcae1fa80bf2923d75411537984aaf48c6f1_1000.jpg,,
Restaurants,https://www.yellowpages.com/boise-id/mip/bittercreek-alehouse-13207726#open-menu,https://www.yellowpages.com/boise-id/mip/bittercreek-alehouse-13207726,Bittercreek Alehouse,(208) 345-1813,246 N 8th St,Boise,ID,83702,"Snacks, Poutine, Boards, Sandwiches, Soup & Salad, All-Day Special, Specials, Burgers, Pizza, Dinner, Sides, Desserts, Bittercreek Alehouse", Hours- Mon - Wed:11:00 am - 10:00 pmThu - Sat:11:00 am - 11:00 pmSun:8:00 am - 11:00 pm,https://i1.ypcdn.com/blob/e29667ac310ea4f232490b95125dbb2fcca67352_1000.jpg,https://i3.ypcdn.com/blob/de173de17b7f2bffa9f43b9f180e34c452aa0f9b_1000.jpg,,,,,,,
Restaurants,https://www.yellowpages.com/boise-id/mip/blimpie-10878026#open-menu,https://www.yellowpages.com/boise-id/mip/blimpie-10878026,Blimpie,(208) 377-3753,3359 N Five Mile Rd,Boise,ID,83713,"Limited Time Subs, Premium Subs, Classic Subs, Hot Subs, Drinks & Sides, Kids Meals, Local Favorites, Catering, Blimpie", Hours- Mon - Sat:10:30 am - 9:00 pmSun:11:30 am - 6:00 pm,https://i1.ypcdn.com/blob/fae2070b242764b9f84803544547dc3aec14191e_1000.jpg,https://i3.ypcdn.com/blob/c7b0d85b2dfb70f52a46d5a5fa71c5f393a4bbfa_1000.jpg,,,,,,,
Restaurants,https://www.yellowpages.com/boise-id/mip/blimpie-11587719#open-menu,https://www.yellowpages.com/boise-id/mip/blimpie-11587719,Blimpie,(208) 333-8888,1781 W State St Spc 11,Boise,ID,83702,"Limited Time Subs, Premium Subs, Classic Subs, Hot Subs, Drinks & Sides, Kids Meals, Local Favorites, Catering, Blimpie", Hours- Mon - Fri:10:00 am - 4:00 pmSat:11:00 am - 4:00 pmSunClosed,https://i3.ypcdn.com/blob/fae2070b242764b9f84803544547dc3aec14191e_1000.jpg,https://i3.ypcdn.com/blob/c7b0d85b2dfb70f52a46d5a5fa71c5f393a4bbfa_1000.jpg,,,,,,,
Restaurants,https://www.yellowpages.com/boise-id/mip/boex-15907189#open-menu,https://www.yellowpages.com/boise-id/mip/boex-15907189,Boex,(208) 433-9955,4846 W Emerald St,Boise,ID,83706,"Featured Items, Dessert, Drinks, Coffee, Boex", Hours- Mon - Fri:9:00 am - 7:00 pmSat:9:00 am - 12:45 amSunClosed,https://i2.ypcdn.com/blob/f7d7734cea1acba562ceec167d48def6fc04e64e_1000.jpg,,,,,,,,
Restaurants,https://www.yellowpages.com/boise-id/mip/bonefish-grill-13259543#open-menu,https://www.yellowpages.com/boise-id/mip/bonefish-grill-13259543,Bonefish Grill,(208) 433-1234,855 W Broad St,Boise,ID,83702,"Starters & Sharing, Soups & Salads, Hand Helds, Grilled Fish, Grilled Specialties, Saute, Bowls, Sides, Desserts, Bonefish Grill", Hours- Mon - Thu:11:30 am - 9:00 pmFri - Sat:11:30 am - 10:00 pmSun:2:00 pm - 9:00 pm,https://i4.ypcdn.com/blob/cbb9965804f19a07744fabd7a2c708073ea9f9eb_1000.jpg,https://i1.ypcdn.com/blob/c2bb9b956a2312d3958419cec91472e27890bbe1_1000.jpg,https://i4.ypcdn.com/blob/88cfff9c2ac56463fe0e3c80270f44d34464de50_1000.jpg,https://i3.ypcdn.com/blob/77e4429074e08065247f7f3ad2737d00a733fba1_1000.jpg,https://i2.ypcdn.com/blob/35114c3f1f087c80381807d7c35e1e59f4a8a84e_1000.jpg,https://i1.ypcdn.com/blob/08d487288c61c5855ca6570af60eaf8d4062d236_1000.jpg,https://i4.ypcdn.com/blob/87039ca5dc6e63c74512748767e280e0c8d21fa2_1000.jpg,,
Restaurants,https://www.yellowpages.com/boise-id/mip/capri-restaurant-10406607#open-menu,https://www.yellowpages.com/boise-id/mip/capri-restaurant-10406607,Capri Restaurant,(208) 342-1442,2520 W Fairview Ave,Boise,ID,83702,Capri Restaurant, Hours- Mon - Sun:6:00 am - 3:00 pm,https://i1.ypcdn.com/blob/b99e1ee69b6999a94776e6d44fa195536a6835a3_1000.jpg,https://i4.ypcdn.com/blob/6042c996c9d8cc9346c8d0363ee9c509df9288b2_1000.jpg,,,,,,,
Restaurants,https://www.yellowpages.com/boise-id/mip/casa-mexico-12058951#open-menu,https://www.yellowpages.com/boise-id/mip/casa-mexico-12058951,Casa Mexico,(208) 333-8330,1605 N 13th St,Boise,ID,83702,"Botanas (Appetizers), Ensaladas (Salads), Vegetarianos (Vegetarian), Cocktails, Side Orders, Beverages, Desserts, Especiales De Pollo (Chicken), Favorites (Carne, Puerco O Pollo), Little Amigos, Traditional Combination Plates, Small Combination Plates, Large Combination Plates, Casa Mexico", Hours- Mon - Sat:11:00 am - 10:00 pmSun:11:00 am - 9:00 pm,,,,,,,,,
Restaurants,https://www.yellowpages.com/boise-id/mip/chandlers-prime-steaks-fine-seafood-13073064#open-menu,https://www.yellowpages.com/boise-id/mip/chandlers-prime-steaks-fine-seafood-13073064,Chandlers Prime Steaks | Fine Seafood,(208) 383-4300,981 W Grove St,Boise,ID,83702,"Desserts, Dessert Wines, COGNACS + DIGESTIFS (2 oz), Dessert Cocktails, Chandlers Prime Steaks | Fine Seafood", Hours- Mon - Thu:4:00 pm - 10:00 pmFri - Sat:4:00 pm - 11:00 pmSun:4:00 pm - 10:00 pm,https://i2.ypcdn.com/blob/e168af573618c0ba230519ef3981ea9ad73578d0_1000.jpg,https://i4.ypcdn.com/blob/fc3388d1c39d3478254c39a05e5b003add82f1a6_1000.jpg,https://i3.ypcdn.com/blob/f5ce5160803f04e280283aaa7c7a730dc2bacba3_1000.jpg,https://i2.ypcdn.com/blob/c19258fb3a2e59686f9f055b08f65faf21034e7f_1000.jpg,https://i4.ypcdn.com/blob/bc832034bb573cc120ddfc3a7774e6effd558550_1000.jpg,https://i2.ypcdn.com/blob/9eb71d971cce82476b6688b1cb011fb655cf3b37_1000.jpg,https://i1.ypcdn.com/blob/935eca584c96c72ae45e1e66d737198c5119ff0a_1000.jpg,,
Restaurants,https://www.yellowpages.com/boise-id/mip/chapala-mexican-restaurant-16824618#open-menu,https://www.yellowpages.com/boise-id/mip/chapala-mexican-restaurant-16824618,Chapala Mexican Restaurant,(208) 429-1155,1201 S Vista Ave,Boise,ID,83705,"Specialties, Favorites, Seafood, Burritos, Combinations, Chapala Mexican Restaurant", Hours- Mon - Fri:11:00 am - 11:30 pmSat - Sun:4:00 pm - 11:30 pm,,,,,,,,,
Restaurants,https://www.yellowpages.com/boise-id/mip/charlie-browns-14648379#open-menu,https://www.yellowpages.com/boise-id/mip/charlie-browns-14648379,Charlie Brown's,(208) 375-6541,5783 W Overland Rd,Boise,ID,83705,"Appetizers, Salads and Seafood, Burger, Chicken Sandwiches, Sandwiches, Charlie Brown's", Hours- Mon - Sun:7:00 am - 2:00 am,,,,,,,,,
Restaurants,https://www.yellowpages.com/boise-id/mip/chiang-mai-thai-13828882#open-menu,https://www.yellowpages.com/boise-id/mip/chiang-mai-thai-13828882,Chiang Mai Thai,(208) 342-4051,4898 W Emerald St,Boise,ID,83706,"Appetizers, Soups, Salads, Entrees, Noodle, Curry, Desserts, Chiang Mai Thai", Hours- Mon - Thu:11:00 am - 9:30 pmFri - Sat:11:00 am - 10:00 pmSun:4:30 pm - 9:30 pm,https://i2.ypcdn.com/blob/7e51b4eabd1ae6093f2acf4d8287c3a2867a1c3e_1000.jpg,,,,,,,,
Restaurants,https://www.yellowpages.com/boise-id/mip/chicago-connection-1293450#open-menu,https://www.yellowpages.com/boise-id/mip/chicago-connection-1293450,Chicago Connection,(208) 377-5551,7070 W Fairview Ave,Boise,ID,83704,"For Starters, Salads & Soup, House Specialty Deep Dish Pizzas - Your All-Time Favorites, House Specialty Deep Dish Pizzas - Creamy Roasted Garlic Pizzas, Our Newest Additions, Desserts, Chicago Connection", Hours- Mon - Thu:11:00 am - 9:00 pmFri - Sat:11:00 am - 10:00 pmSun:12:00 pm - 9:00 pm,https://i2.ypcdn.com/blob/311fd8f72cb1bfa8ed769e0bb731b0db74b45dd8_1000.jpg,,,,,,,,
Restaurants,https://www.yellowpages.com/boise-id/mip/chicago-connection-pizza-10198282#open-menu,https://www.yellowpages.com/boise-id/mip/chicago-connection-pizza-10198282,Chicago Connection Pizza,(208) 344-6838,3931 W Overland Rd,Boise,ID,83705,"For Starters, Salads & Soup, House Specialty Deep Dish Pizzas - Your All-time Favorites, Creamy Roasted Garlic Pizza, Hot Sandwiches, Desserts, Chicago Connection Pizza", Hours- Mon - Sat:11:00 am - 10:00 pmSun:12:00 pm - 10:00 pm,,,,,,,,,
Restaurants,https://www.yellowpages.com/boise-id/mip/china-grand-buffet-1076919#open-menu,https://www.yellowpages.com/boise-id/mip/china-grand-buffet-1076919,China Grand Buffet,(208) 321-9888,10498 W Fairview Ave,Boise,ID,83704,"Appetizers, Chicken, Sea Food, Soups, Fried Rice, China Grand Buffet", Hours- Mon - Thu:10:30 am - 10:00 pmFri - Sat:10:30 am - 11:00 pmSun:11:00 am - 10:00 pm,https://i4.ypcdn.com/blob/dc7dcec792b359227f850456394d2b2d60d092a7_1000.jpg,https://i4.ypcdn.com/blob/4811440fa1d890d2aa738991256ce0fa833c9deb_1000.jpg,https://i2.ypcdn.com/blob/35c13c52251ee5189b7f2929e328bc07c4c37216_1000.jpg,,,,,,
Restaurants,https://www.yellowpages.com/boise-id/mip/chuck-a-rama-buffet-15765811#open-menu,https://www.yellowpages.com/boise-id/mip/chuck-a-rama-buffet-15765811,Chuck-A-Rama Buffet,(208) 327-4800,7901 W Overland Rd,Boise,ID,83709,"Entrees, A La Carte, Sides, Soups and Salads, Bakery & Desserts, Chuck-A-Rama Buffet", Hours- Mon - Sat:11:00 am - 9:00 pmSun:11:00 am - 8:00 pm,,,,,,,,,
Restaurants,https://www.yellowpages.com/boise-id/mip/cobbys-1457126#open-menu,https://www.yellowpages.com/boise-id/mip/cobbys-1457126,Cobby's,(208) 345-0990,1030 S Broadway Ave,Boise,ID,83706,"Cobby's Menu, on the Side, Cobby's", Hours- Mon - Sun:Open 24 Hours- ,,,,,,,,,
Restaurants,https://www.yellowpages.com/boise-id/mip/corona-village-2681974#open-menu,https://www.yellowpages.com/boise-id/mip/corona-village-2681974,Corona Village,(208) 338-9707,4334 W State St,Boise,ID,83703,"Mucho Queso, Por Favor, Ensaladas, Fajitas Y Mas, Don Juanito Favorite, Burgers, Combinations, Enchiladas, Corona Village", Hours- Mon - Sat:11:00 am - 10:00 pmSun:11:00 am - 8:30 pm,,,,,,,,,
Restaurants,https://www.yellowpages.com/boise-id/mip/crescent-no-lawyers-bar-grill-2641085#open-menu,https://www.yellowpages.com/boise-id/mip/crescent-no-lawyers-bar-grill-2641085,"Crescent ""No Lawyers"" Bar & Grill",(208) 322-9856,5500 W Franklin Rd,Boise,ID,83705,"Appetizers, Witness Stand Soups and Salads, Daily Half Sandwich Specials, And More Appetizers, Courthouse Burgers, Burgers and Chicken Sandwiches, Fresh Steamer Clams, Jailhouse Sandwiches, Crescent ""No Lawyers"" Bar & Grill", Hours- Mon:11:00 am - 11:00 pmTue:1:00 am - 11:00 pmWed:11:00 am - 11:00 pmThu:2:00 am - 11:00 pmFri - Sat:11:00 am - 12:00 pmSun:2:00 pm - 10:00 pm,,,,,,,,,
Restaurants,https://www.yellowpages.com/boise-id/mip/dk-long-donuts-15473985#open-menu,https://www.yellowpages.com/boise-id/mip/dk-long-donuts-15473985,Dk Long Donuts,(208) 385-7480,1300 W State St,Boise,ID,83702,"Fancy Donuts, Regular Donuts, Beverages, Dk Long Donuts", Hours- Mon - Sat:4:00 am - 9:00 pmSun:4:00 am - 6:00 pm,,,,,,,,,
Restaurants,https://www.yellowpages.com/boise-id/mip/flatbread-neapolitan-pizzeria-12735505#open-menu,https://www.yellowpages.com/boise-id/mip/flatbread-neapolitan-pizzeria-12735505,Flatbread Neapolitan Pizzeria,(208) 343-4177,3139 S Bown Way,Boise,ID,83706,"Popular Items, Flatbread Neapolitan Pizzeria", Hours- Mon - Thu:11:00 am - 9:00 pmFri - Sat:11:00 am - 10:00 pmSun:12:00 pm - 9:00 pm,,,,,,,,,
Restaurants,https://www.yellowpages.com/boise-id/mip/flying-pie-pizzaria-18964601#open-menu,https://www.yellowpages.com/boise-id/mip/flying-pie-pizzaria-18964601,Flying Pie Pizzaria,(208) 384-0000,4320 W State St,Boise,ID,83703,"Popular Items, Flying Pie Pizzaria", Hours- Mon - Thu:11:00 am - 10:00 pmFri - Sat:11:00 am - 11:00 pmSun:11:00 am - 10:00 pm,https://i1.ypcdn.com/blob/d6b1f9ca63f7417d77908c1f85b4d25aacd2c77b_1000.jpg,https://i2.ypcdn.com/blob/c4f6c4189c17915dc5a49c3cddfee15f5dee56db_1000.jpg,https://i1.ypcdn.com/blob/bde46f08aff2d632998476570d4131163d386114_1000.jpg,https://i1.ypcdn.com/blob/81f85b0e1480a0d11a4567a428e32762abe30669_1000.jpg,https://i2.ypcdn.com/blob/7a670ef3eeb63d5696bdf6eb08aff937445409ab_1000.jpg,https://i3.ypcdn.com/blob/775ae7565744b6b64e5919aecd2d0abc05dae2f4_1000.jpg,https://i3.ypcdn.com/blob/6e84fea0b1ec184ee71c730560308b2109d1c45e_1000.jpg,,
Restaurants,https://www.yellowpages.com/boise-id/mip/glorias-restaurant-13571649#open-menu,https://www.yellowpages.com/boise-id/mip/glorias-restaurant-13571649,Gloria's Restaurant,(208) 342-7676,1221 W Boise Ave,Boise,ID,83706,"Appetizers, Soups, Salads, Tex Mex Dishes, Enchiladas, Quesadillas, Salvatex Combinations, Mexican Food, Shrimp And Fish, Salvadorian Food, Desserts, Gloria's Restaurant",HoursDo you know the Hours-  for this business?,,,,,,,,,
Restaurants,https://www.yellowpages.com/boise-id/mip/goodwood-barbecue-company-1426568#open-menu,https://www.yellowpages.com/boise-id/mip/goodwood-barbecue-company-1426568,Goodwood Barbecue Company,(208) 658-7173,7849 W Spectrum St,Boise,ID,83709,"Appetizers, Homemade Salads & Soup, Goodwood House Choices, Barbecue Platters - Ribs, Poultry, Beef, Pork, Deluxe Sandwiches & Burgers, Goodwood Barbecue Company", Hours- Mon - Thu:11:00 am - 9:00 pmFri - Sat:11:00 am - 10:00 pmSun:11:00 am - 9:00 pm,https://i4.ypcdn.com/blob/d7139839b2aaa586ad5c7d6f3cdb7dd455c74607_1000.jpg,https://i3.ypcdn.com/blob/d307649565b5f4630008fc69278bdae3b6d463eb_1000.jpg,https://i3.ypcdn.com/blob/bf23229e7231b59e52acdaa2fc62d342f68b5f0a_1000.jpg,https://i1.ypcdn.com/blob/8d9219d822046b7fb54287472046cb376a9604bc_1000.jpg,https://i1.ypcdn.com/blob/632ba4757a0dad4ca982337560a5694ba57dcbb3_1000.jpg,https://i3.ypcdn.com/blob/27446104fa8ce3dae1c90f15f4e566ad5514458c_1000.jpg,,,
Restaurants,https://www.yellowpages.com/boise-id/mip/great-wall-restaurant-17335486#open-menu,https://www.yellowpages.com/boise-id/mip/great-wall-restaurant-17335486,Great Wall Restaurant,(208) 376-3260,10398 W Overland Rd,Boise,ID,83709,"Combination Dinners, Hot and Spicy Dishes, Szechwan Style Dishes, Our Chef's Suggestions, Family Style Dinners, Sweet and Sour Dishes, Fried Rice Dishes, Chow Mien Dishes, Egg Fu Young Dishes, Appetizers, Soups, Noodles, Sandwiches, Great Wall Restaurant", Hours- Mon - Sun:11:00 am - 11:00 pm,,,,,,,,,
Restaurants,https://www.yellowpages.com/boise-id/mip/guidos-original-new-york-style-pizza-chinden-11571697#open-menu,https://www.yellowpages.com/boise-id/mip/guidos-original-new-york-style-pizza-chinden-11571697,Guido's Original New York Style Pizza Chinden,(208) 376-1008,12375 W Chinden Blvd Ste G,Boise,ID,83713,"SALADS, FEATURED ITEMS, SLICES OF PIZZA, PIZZA, EXTRA ITEMS, SODA, WINES, DOMESTIC BEER, IMPORTS & MICROBREWS, Guido's Original New York Style Pizza Chinden", Hours- Mon - Thu:11:00 am - 9:00 pmFri - Sat:11:00 am - 10:00 pmSun:11:00 am - 9:00 pm,https://i3.ypcdn.com/blob/6fcc20e18af6fb4ebc21649bd198f002713f0fbb_1000.jpg,,,,,,,,
Restaurants,https://www.yellowpages.com/boise-id/mip/guidos-original-new-york-style-pizza-downtown-1397961#open-menu,https://www.yellowpages.com/boise-id/mip/guidos-original-new-york-style-pizza-downtown-1397961,Guido's Original New York Style Pizza Downtown,(208) 345-9011,235 N 5th St,Boise,ID,83702,"SALADS, FEATURED ITEMS, SLICES OF PIZZA, PIZZA, EXTRA ITEMS, SODA, WINES, DOMESTIC BEER, IMPORTS & MICROBREWS, Guido's Original New York Style Pizza Downtown", Hours- Mon - Thu:11:00 am - 9:00 pmFri - Sat:11:00 am - 10:00 pmSun:11:00 am - 9:00 pm,https://i2.ypcdn.com/blob/6fcc20e18af6fb4ebc21649bd198f002713f0fbb_1000.jpg,,,,,,,,
Restaurants,https://www.yellowpages.com/boise-id/mip/gyro-shack-23725681#open-menu,https://www.yellowpages.com/boise-id/mip/gyro-shack-23725681,Gyro Shack,(208) 375-7424,6871 W Overland Rd,Boise,ID,83709,"Gyro, Gyro Shack", Hours- Mon - Sat:10:00 am - 9:00 pmSun:11:00 am - 7:00 pm,,,,,,,,,
Restaurants,https://www.yellowpages.com/boise-id/mip/ihop-20529806#open-menu,https://www.yellowpages.com/boise-id/mip/ihop-20529806,IHOP,(208) 322-4467,7959 W Emerald St,Boise,ID,83704,"Appetizers, Sandwiches, Ultimate Steakburgers, Entrees, New Creations!!, IHOP", Hours-  MONDAY-SUNDAY,https://i2.ypcdn.com/blob/a66b8907b19b888ac908ae324ee95aa4b40cb623_1000.jpg,https://i4.ypcdn.com/blob/155e3849235e0eaccad6a7a8eb05af9a763bf7e3_1000.jpg,https://i3.ypcdn.com/blob/173f7dcb0959115ee74c56125edd75177c78a5ed_1000.jpg,,,,,,
Restaurants,https://www.yellowpages.com/boise-id/mip/iou-sushi-11234832#open-menu,https://www.yellowpages.com/boise-id/mip/iou-sushi-11234832,Iou Sushi,(208) 672-7223,1517 N Milwaukee St,Boise,ID,83704,"Appetizers, Entrees, Nigiri-sushi (2 Pieces), Tamaki -sushi (hand Roll-1 Piece), Maki-sushi (long Roll), Iou Sushi", Hours- Mon - Sat:11:00 am - 9:30 pm,,,,,,,,,
Restaurants,https://www.yellowpages.com/boise-id/mip/jumpin-janets-2310210#open-menu,https://www.yellowpages.com/boise-id/mip/jumpin-janets-2310210,Jumpin Janet's,(208) 342-7620,572 S Vista Ave,Boise,ID,83705,"Jump Starters, All Day Munchies, 30 Years Ago, Boise Best Breakfast Just Got Better, Salad-Soups, Lunch Special, Anytime Hoppin' Entrees, Dinner Special, JJ's Burgers, Jumpin Janet's", Hours- Tue - Sat:12:00 pm - 2:00 amSun:10:00 am - 5:00 pm,https://i3.ypcdn.com/blob/f2e08d12be11c321936f1840e9f3c2abd7fcf556_1000.jpg,,,,,,,,
Restaurants,https://www.yellowpages.com/boise-id/mip/kopper-kitchen-3127023#open-menu,https://www.yellowpages.com/boise-id/mip/kopper-kitchen-3127023,Kopper Kitchen,(208) 344-5619,2661 W Airport Way,Boise,ID,83705,"Breakfast Plates, The Best Burgers Around, Outstanding Omelets, Juices, Fruit & Side Orders, Gourmet Sandwiches, Hot Off The Griddle, Vegetarian, Special Breakfasts, Open-Faced Sandwiches, Homemade Soup, Stew & Chili, Lighter Fare, Perfect Pasta, Evening Specials Sunday, Kopper Kitchen", Hours- Mon - Sun:6:00 am - 10:00 pm,,,,,,,,,
Restaurants,https://www.yellowpages.com/boise-id/mip/kyoto-1302944#open-menu,https://www.yellowpages.com/boise-id/mip/kyoto-1302944,Kyoto,(208) 378-8808,6002 W Fairview Ave,Boise,ID,83704,"Traditional Dinners, Seafood Selections, Combinations, Sushi & Sashimi Dinners, Dinner Specialties, Kyoto", Hours- Wed - Thu:4:00 pm - 9:00 pmFri - Sat:4:00 pm - 10:00 pmSun:4:00 pm - 9:00 pm,,,,,,,,,
Restaurants,https://www.yellowpages.com/boise-id/mip/liquid-lounge-2698902#open-menu,https://www.yellowpages.com/boise-id/mip/liquid-lounge-2698902,Liquid Lounge,(208) 287-5379,405 S 8th St,Boise,ID,83702,"Starters, Salads, Entrees, House Favorites, Desserts, Liquid Lounge", Hours- Mon - Sun:Open 24 Hours- ,https://i2.ypcdn.com/blob/e6990935e7903c4e057cf73c9254fd1e8f3597c3_1000.jpg,https://i1.ypcdn.com/blob/dde7de23e0ca37c2311154e34625f25b28736042_1000.jpg,https://i2.ypcdn.com/blob/9a51fc1c9857b55be6f27cced2ef9f4918c326fd_1000.jpg,https://i4.ypcdn.com/blob/8b5d9333712a564e4a6aefbb21e7d077ca8b3d6d_1000.jpg,https://i2.ypcdn.com/blob/6e3fd03d2cb8611614a6c0dc1e344ed303ffed69_1000.jpg,https://i2.ypcdn.com/blob/491a15fbec7f088af65b2a11ae2830d3a13396a0_1000.jpg,https://i2.ypcdn.com/blob/2de67d2b6bb0ac9ba1cee0b166401fc39aa6a96d_1000.jpg,,
Restaurants,https://www.yellowpages.com/boise-id/mip/lucky-palace-chinese-restaurant-12489772#open-menu,https://www.yellowpages.com/boise-id/mip/lucky-palace-chinese-restaurant-12489772,Lucky Palace Chinese Restaurant,(208) 376-2828,8630 W Overland Rd,Boise,ID,83709,"Popular Items, Lucky Palace Chinese Restaurant", Hours- Mon - Fri:11:00 am - 10:00 pmSat - Sun:11:00 am - 11:00 pm,,,,,,,,,
Restaurants,https://www.yellowpages.com/boise-id/mip/madhuban-indian-cuisine-13600729#open-menu,https://www.yellowpages.com/boise-id/mip/madhuban-indian-cuisine-13600729,Madhuban Indian Cuisine,(208) 853-8215,6930 W State St,Boise,ID,83714,"Appetizers, Chicken Specialties, Vegetarian Entrees, Seafood Entrees, Tandoori Clay Oven Specialities, Desserts, Madhuban Indian Cuisine", Hours- Mon - Thu:5:00 pm - 9:00 pmFri - Sun:5:00 pm - 10:00 am,https://i3.ypcdn.com/blob/fe1a599987a2137ec99d0250bf1698d9d54c4902_1000.jpg,,,,,,,,
Restaurants,https://www.yellowpages.com/boise-id/mip/mandarin-palace-10624174#open-menu,https://www.yellowpages.com/boise-id/mip/mandarin-palace-10624174,Mandarin Palace,(208) 345-6682,5020 W Franklin Rd,Boise,ID,83705,"Appetizers, Soups, Salads, Authentic Chinese Specialties - Chicken, Chow Mein, Mandarin Palace", Hours- Tue - Sun:12:00 pm - 10:00 pm,,,,,,,,,
Restaurants,https://www.yellowpages.com/boise-id/mip/marie-callenders-restaurant-bakery-11138096#open-menu,https://www.yellowpages.com/boise-id/mip/marie-callenders-restaurant-bakery-11138096,Marie Callender's Restaurant & Bakery,(208) 375-7744,8574 W Fairview Ave,Boise,ID,83704,"Appetizers, Salads, Tacos, Comfort Classics, Delightful Dishes, Marie Callender's Restaurant & Bakery", Hours- Mon - Thu:7:00 am - 10:00 pmFri - Sat:7:00 am - 11:00 pmSun:7:00 am - 10:00 pm,,,,,,,,,
Restaurants,https://www.yellowpages.com/boise-id/mip/mongolian-bbq-18379157#open-menu,https://www.yellowpages.com/boise-id/mip/mongolian-bbq-18379157,Mongolian BBQ,(208) 387-0393,1808 S Broadway Ave,Boise,ID,83706,"All You Can Eat, To Go Orders, Dessert, Mongolian BBQ", Hours- Mon - Fri:10:45 am - 9:30 pmSat:10:00 am - 10:00 pmSun:11:00 am - 9:30 pm,,,,,,,,,
Restaurants,https://www.yellowpages.com/boise-id/mip/ole-international-foods-23428325#open-menu,https://www.yellowpages.com/boise-id/mip/ole-international-foods-23428325,Ole International Foods,(208) 344-3222,404 S 8th St,Boise,ID,83702,"Appetizers, Soup And Salad, Burritos, Enchiladas, Tacos, Ole International Foods", Hours- Mon - Thu:11:00 am - 10:00 pmFri - Sat:11:00 am - 11:00 pmSun:11:00 am - 9:00 pm,,,,,,,,,
Restaurants,https://www.yellowpages.com/boise-id/mip/p-f-changs-17739358#open-menu,https://www.yellowpages.com/boise-id/mip/p-f-changs-17739358,P.F. Chang's,(208) 342-8100,391 S 8th St,Boise,ID,83702,"Most Popular, Lunch Favorites, Appetizers, Main Entrées, Noodles & Rice, Gluten Free, Lite Selections, Sushi, Salads & Soups, Dessert, Family Bundles |Starting at $15 a person, Beverages, Kids, P.F. Chang's", Hours- Mon - Thu:11:00 am - 10:00 pmFri - Sat:11:00 am - 11:00 pmSun:11:00 am - 10:00 pmHappy Hours- Mon - Fri3:00 pm - 6:00 pm,https://i1.ypcdn.com/blob/ee7bbd84e08a3710fae88261c1acf68194075f54_1000.jpg,https://i1.ypcdn.com/blob/cb03055099308597481838b97463bab89971e977_1000.jpg,https://i3.ypcdn.com/blob/b75795991b1547858ba7bde688472d95bcf502af_1000.jpg,https://i1.ypcdn.com/blob/91298d4d20352d59c4a505df27b38f09ff51b631_1000.jpg,https://i2.ypcdn.com/blob/6566d0705159dc1321999e07b84e97b3e69410ac_1000.jpg,https://i1.ypcdn.com/blob/600b6ead248c703d556252afdeebd45a63c6abcd_1000.jpg,https://i1.ypcdn.com/blob/4a8f122d4025e2ae1b6b3a6ea2ddea07dee072d4_1000.jpg,,
Restaurants,https://www.yellowpages.com/boise-id/mip/panda-express-11028635#open-menu,https://www.yellowpages.com/boise-id/mip/panda-express-11028635,Panda Express,(208) 321-0350,1124 N Milwaukee St,Boise,ID,83704,"Plate, Bigger Plate, Bowl, Family Feast, Appetizers, Panda Express", Hours- Mon - Sat:10:00 am - 9:00 pmSun:10:00 am - 8:00 pm,https://i3.ypcdn.com/blob/9f47f9c401a9dce2e57dc19520ebda133d264fe7_1000.jpg,,,,,,,,
Restaurants,https://www.yellowpages.com/boise-id/mip/panda-express-3112783#open-menu,https://www.yellowpages.com/boise-id/mip/panda-express-3112783,Panda Express,(208) 323-7869,7804 W Overland Rd,Boise,ID,83709,"Plate, Bigger Plate, Appetizers, Sides - A la Carte, Entrees - A la Carte, Panda Express", Hours- Mon - Thu:10:00 am - 10:00 pmFri - Sat:10:00 am - 10:30 pmSun:10:30 am - 10:00 pm,https://i1.ypcdn.com/blob/9f47f9c401a9dce2e57dc19520ebda133d264fe7_1000.jpg,,,,,,,,
Restaurants,https://www.yellowpages.com/boise-id/mip/panda-garden-14432781#open-menu,https://www.yellowpages.com/boise-id/mip/panda-garden-14432781,Panda Garden,(208) 433-1188,2801 W Overland Rd,Boise,ID,83705,"Appetizers, Japanese Appetizers, Soup, Soup and Salad, Side Order, Panda Garden", Hours- Mon - Thu:10:30 am - 10:30 pmFri - Sat:10:30 am - 11:00 pmSun:10:30 am - 10:30 pm,,,,,,,,,
Restaurants,https://www.yellowpages.com/boise-id/mip/pantry-restaurant-11567095#open-menu,https://www.yellowpages.com/boise-id/mip/pantry-restaurant-11567095,Pantry Restaurant,(208) 344-5486,1545 W Shoreline Dr,Boise,ID,83702,"Pantry Specialties, Sandwiches, The Pantry Grill, Bodacious Burgers, Pantry Restaurant", Hours- Mon - Fri:6:30 am - 4:00 pmSat:7:30 am - 3:00 pmSun:8:30 am - 3:00 pm,,,,,,,,,
Restaurants,https://www.yellowpages.com/boise-id/mip/papa-murphys-take-n-bake-pizza-12088221#open-menu,https://www.yellowpages.com/boise-id/mip/papa-murphys-take-n-bake-pizza-12088221,Papa Murphy's Take N Bake Pizza,(208) 658-1155,7320 W Fairview Ave,Boise,ID,83704,Papa Murphy's Take N Bake Pizza, Hours- Mon - Sun:10:00 am - 9:00 pm,https://i1.ypcdn.com/blob/e922aa4f27de9e86091c1b4ebaa1fe8cb254436e_1000.jpg,https://i3.ypcdn.com/blob/c5bf294a6270e2df334a44719bea5a8fa676eee3_1000.jpg,https://i2.ypcdn.com/blob/b291bee2d7d4d72b185ea45ab5acfd884c6ceedb_1000.jpg,https://i2.ypcdn.com/blob/9b0fa8dad4b0d1cb19ee336e2ec7fb7a080a0321_1000.jpg,https://i2.ypcdn.com/blob/47703d9f8c8578101c4d6f808d2b3aacea823a0d_1000.jpg,https://i4.ypcdn.com/blob/3679b44964d22aae807de1a871e21bf5a62eec0a_1000.jpg,https://i4.ypcdn.com/blob/2f0a73bc3f3a2f4a66915f1e632d87c84ddbcad6_1000.jpg,,
Restaurants,https://www.yellowpages.com/boise-id/mip/papa-murphys-take-n-bake-pizza-1600235#open-menu,https://www.yellowpages.com/boise-id/mip/papa-murphys-take-n-bake-pizza-1600235,Papa Murphy's | Take 'N' Bake Pizza,(208) 344-0070,2412 S Apple St,Boise,ID,83706,"Create Your Own, Specials & Deals, Specialty Pizzas, Calzones, Dairy-Free Cheese, Stuffed Pizzas, Family Friendly, Crustless Keto-Friendly Pizzas, Salads & Sides, Desserts & Drinks, Papa Murphy's | Take 'N' Bake Pizza", Hours- Mon - Sun:10:00 am - 9:00 pm,https://i3.ypcdn.com/blob/d32b86ebdceecc876732182225b62e592e17e8db_1000.jpg,https://i2.ypcdn.com/blob/c9ca723f2e0ec0876a7cfb2f0b4876e73482cc1b_1000.jpg,https://i4.ypcdn.com/blob/de04a1a6ccab8e6edfc193937d889a9f64cb6e94_1000.jpg,https://i1.ypcdn.com/blob/9b0318d79f83b8a3ae94f672086ff3745258efa8_1000.jpg,https://i2.ypcdn.com/blob/744f65e77ee04eef082f4c770ac5a1e599995774_1000.jpg,https://i1.ypcdn.com/blob/53391fef0a9ffa208f80688980292ef7df2ca59e_1000.jpg,https://i4.ypcdn.com/blob/297928703ab584ab44506f6b1aab0edb83b0028b_1000.jpg,,
Restaurants,https://www.yellowpages.com/boise-id/mip/papa-murphys-take-n-bake-pizza-16087333#open-menu,https://www.yellowpages.com/boise-id/mip/papa-murphys-take-n-bake-pizza-16087333,Papa Murphy's | Take 'N' Bake Pizza,(208) 375-8700,10545 W Overland Rd,Boise,ID,83709,"Create Your Own, Specials & Deals, Specialty Pizzas, Calzones, Dairy-Free Cheese, Stuffed Pizzas, Family Friendly, Crustless Keto-Friendly Pizzas, Salads & Sides, Desserts & Drinks, Papa Murphy's | Take 'N' Bake Pizza", Hours- Mon - Sun:10:00 am - 9:00 pm,https://i1.ypcdn.com/blob/d32b86ebdceecc876732182225b62e592e17e8db_1000.jpg,https://i4.ypcdn.com/blob/c9ca723f2e0ec0876a7cfb2f0b4876e73482cc1b_1000.jpg,https://i1.ypcdn.com/blob/a0df7262ab5cace85e3b36cd7fd7b70ef6d7a54b_1000.jpg,https://i4.ypcdn.com/blob/793746b12554bdc4e2f85d82165d18f8321f08ed_1000.jpg,https://i2.ypcdn.com/blob/4eb312e729585093a448f76077142174754b4a2b_1000.jpg,https://i2.ypcdn.com/blob/4e75b11f19adeb6c328510c83c2529bcba1e37d6_1000.jpg,https://i1.ypcdn.com/blob/49f2a79463a0ce17c808cc124408000ea5a32268_1000.jpg,,
Restaurants,https://www.yellowpages.com/boise-id/mip/parrilla-grill-17619562#open-menu,https://www.yellowpages.com/boise-id/mip/parrilla-grill-17619562,Parrilla Grill,(208) 323-4688,1512 N 13th St,Boise,ID,83702,"Classic Or Fajita Burritos, Tacos, Salad Bowls, Featured Wraps, Extras, Extras - Sides, The Kids Menu, Parrilla Grill", Hours- Mon - Sun:7:00 am - 10:00 pm,https://i4.ypcdn.com/blob/d1301c931bf4e2f1070633b4855098e578dc94e4_1000.jpg,https://i3.ypcdn.com/blob/bd5d7ecff3caac32cf9de12884c5c91041685cc3_1000.jpg,https://i1.ypcdn.com/blob/78e3bcc08dde897fc8e4c838bb6f7b44077aa2b2_1000.jpg,https://i3.ypcdn.com/blob/0360b17c7bdf7da5e81d76fad26e90e1ce15d52f_1000.jpg,,,,,
Restaurants,https://www.yellowpages.com/boise-id/mip/pie-hole-15709532#open-menu,https://www.yellowpages.com/boise-id/mip/pie-hole-15709532,Pie Hole,(208) 344-7783,205 N 8th St,Boise,ID,83702,"Salads, Sticks, Specialty Pies, Our Favorite Combinations, Tops, Bottoms, Custom, Made-to-order Slice, Sweetness, Pie Hole", Hours- Mon - Thu:11:00 am - 3:00 amFri - Sat:11:00 am - 4:00 amSun:12:00 pm - 3:00 am,https://i2.ypcdn.com/blob/da59203adcff3c22ed7ce426fa42bf0e281d9642_1000.jpg,https://i1.ypcdn.com/blob/9849a4d6186ff617441e996e79623db091677b0a_1000.jpg,https://i2.ypcdn.com/blob/961c182c8bcb75212c0c6f435b20252b0d51ab23_1000.jpg,https://i4.ypcdn.com/blob/71d470550a264a3cf3e1dcbdd67e1343ed6aa640_1000.jpg,https://i2.ypcdn.com/blob/41488e891132029a4d0ff120fdbe5d0f67ae77d7_1000.jpg,,,,
Restaurants,https://www.yellowpages.com/boise-id/mip/piper-pub-grill-12942130#open-menu,https://www.yellowpages.com/boise-id/mip/piper-pub-grill-12942130,Piper Pub & Grill,(208) 343-2444,150 N 8th St,Boise,ID,83702,"Make First, Farm Fresh, Bread Filler, Our World Famous Burgers, Pub Classics, Farm Fresh, Pub Classics, Make First, Our World Famous Burgers, Pub Classics, Plates, Silverware Packets & Extras, Beverages, Bread Filler, Piper Pub & Grill", Hours- Mon - Thu:11:00 am - 11:00 pmFri - Sat:11:00 am - 11:30 pmSun:11:00 am - 6:00 pm,,,,,,,,,
Restaurants,https://www.yellowpages.com/boise-id/mip/port-of-subs-23687757#open-menu,https://www.yellowpages.com/boise-id/mip/port-of-subs-23687757,Port of Subs,(208) 322-7678,722 N Benjamin Ln,Boise,ID,83704,"Beverages, Flat Bread Breakfast Grillers, Fresh Salads, Classic Subs, Wraps, Port of Subs", Hours- Mon - Sat:10:00 am - 7:00 pmSun:11:00 am - 4:00 pm,https://i3.ypcdn.com/blob/b01ee028f7e766c45267b561612767b3362749d3_1000.jpg,https://i2.ypcdn.com/blob/07190774ec021a4b8f4a4e37f94d89531d032d8c_1000.jpg,,,,,,,
Restaurants,https://www.yellowpages.com/boise-id/mip/red-robin-gourmet-burgers-20188654#open-menu,https://www.yellowpages.com/boise-id/mip/red-robin-gourmet-burgers-20188654,Red Robin Gourmet Burgers,(208) 344-7471,211 W Parkcenter Blvd,Boise,ID,83706,"Appetizers, Red Robin's Finest Gourmet Burgers, Fire Grilled Gourmet Burgers, Red's Tavern Burgers, Fresh Salads, Red Robin Gourmet Burgers", Hours- Mon - Thu:11:00 am - 10:00 pmFri - Sat:11:00 am - 11:00 pmSun:11:00 am - 10:00 pm,https://i2.ypcdn.com/blob/f7461d30ed912b1e1a4a962ee4da3294de350991_1000.jpg,https://i1.ypcdn.com/blob/bc4ed4b011f1e3cfcc29e6e8818c5fde97e6cc72_1000.jpg,https://i1.ypcdn.com/blob/af55acd360908b19356aa66c297ddc2d564df4ea_1000.jpg,https://i4.ypcdn.com/blob/919cc851a2793ce18312c4aef3d84f993d70cf81_1000.jpg,,,,,
Restaurants,https://www.yellowpages.com/boise-id/mip/senor-fresh-mexican-eatery-14657652#open-menu,https://www.yellowpages.com/boise-id/mip/senor-fresh-mexican-eatery-14657652,Senor Fresh Mexican Eatery,(208) 378-1888,12375 W Chinden Blvd Ste F,Boise,ID,83713,"Specialties, Gourmet Burritos, Regulars, Little Ninos, Side Orders, Beverages, Extras, Senor Fresh Mexican Eatery", Hours- Mon - Sun:11:00 am - 8:00 pm,,,,,,,,,
Restaurants,https://www.yellowpages.com/boise-id/mip/sizzler-11207312#open-menu,https://www.yellowpages.com/boise-id/mip/sizzler-11207312,Sizzler,(208) 322-2930,459 N Cole Rd,Boise,ID,83704,"Salad, Burgers and Sandwiches, Ribs and Chicken, Fresh Seafood, Steaks, Sizzler", Hours- Mon - Thu:11:00 am - 9:00 pmFri - Sat:11:00 am - 10:00 pmSun:11:00 am - 9:00 pm,,,,,,,,,
Restaurants,https://www.yellowpages.com/boise-id/mip/stubs-sports-pub-13946399#open-menu,https://www.yellowpages.com/boise-id/mip/stubs-sports-pub-13946399,Stubs Sports Pub,(208) 336-7882,3662 S Findley Ave,Boise,ID,83705,"Pre-Game Starters, All Star Salads, Sannies & Wraps, Burgers, Little League, Stubs Sports Pub", Hours- Mon - Sat:10:00 am - 11:00 pmSun:10:00 am - 8:00 pm,,,,,,,,,
Restaurants,https://www.yellowpages.com/boise-id/mip/subway-10283199#open-menu,https://www.yellowpages.com/boise-id/mip/subway-10283199,Subway,(208) 327-0900,6892 W Overland Rd,Boise,ID,83709,"Salads, Subway® Series, Chicken, Fresh Fit for Kids®, Italianos, Clubs, Churro, Chips, Deli Heroes, Cheesesteaks, Breakfast, Bottled Beverages, Wraps, Subway", Hours- Mon - Fri:9:00 am - 10:00 pmSat:8:00 am - 10:00 pmSun:9:00 am - 9:00 pm,https://i4.ypcdn.com/blob/b7b33894ced11234f0fdebbe37d929e10a869bbd_1000.jpg,https://i2.ypcdn.com/blob/0c78aa26dba2b7d5a90f9efd0369d8a4003454f5_1000.jpg,https://i2.ypcdn.com/blob/0c0c8238c16b4af38164f8e8a0af4c6e3e9c09cf_1000.jpg,https://i4.ypcdn.com/blob/e93d64b9e7edfffe23dff053840d71753704d0ba_1000.jpg,https://i2.ypcdn.com/blob/5678b7c9249b0b74109d22c7ebd87c97cf896c0d_1000.jpg,,,,
Restaurants,https://www.yellowpages.com/boise-id/mip/subway-11391579#open-menu,https://www.yellowpages.com/boise-id/mip/subway-11391579,Subway,(208) 375-8525,10715 W Fairview Ave,Boise,ID,83713,"Salads, Clubs, Shareable Desserts, Classic Sandwiches, Kids Drinks, Kids' Sides, Subway® Series, Deli Heroes, Chicken, Shareable Desserts, Sidekicks, Churro, Breakfast, Subway", Hours- Mon - Fri:7:00 am - 10:00 pmSat:8:00 am - 10:00 pmSun:9:00 am - 9:00 pm,https://i2.ypcdn.com/blob/b7b33894ced11234f0fdebbe37d929e10a869bbd_1000.jpg,https://i4.ypcdn.com/blob/0c78aa26dba2b7d5a90f9efd0369d8a4003454f5_1000.jpg,https://i2.ypcdn.com/blob/0c0c8238c16b4af38164f8e8a0af4c6e3e9c09cf_1000.jpg,https://i2.ypcdn.com/blob/e93d64b9e7edfffe23dff053840d71753704d0ba_1000.jpg,https://i4.ypcdn.com/blob/5678b7c9249b0b74109d22c7ebd87c97cf896c0d_1000.jpg,,,,
Restaurants,https://www.yellowpages.com/boise-id/mip/subway-1665263#open-menu,https://www.yellowpages.com/boise-id/mip/subway-1665263,Subway,(208) 389-2246,2400 S Apple St,Boise,ID,83706,"Kids' Sides, Cookies, Clubs, Deli Heroes, Cheesesteaks, Classic Sandwiches, Bottled Beverages, Fresh Fit for Kids®, Breakfast, Shareable Desserts, Chicken, Italianos, Kids Drinks, Subway", Hours- Mon - Sat:8:00 am - 9:00 pmSun:9:00 am - 8:00 pm,https://i3.ypcdn.com/blob/e93d64b9e7edfffe23dff053840d71753704d0ba_1000.jpg,https://i4.ypcdn.com/blob/5678b7c9249b0b74109d22c7ebd87c97cf896c0d_1000.jpg,,,,,,,
Restaurants,https://www.yellowpages.com/boise-id/mip/subway-2113847#open-menu,https://www.yellowpages.com/boise-id/mip/subway-2113847,Subway,(208) 322-3434,6931 W Fairview Ave Ste 6,Boise,ID,83704,"Breakfast, Fountain Drinks, Wraps, Drinks, Bottled Beverages, Kids Drinks, Deli Heroes, Sides, Fresh Fit for Kids®, Hot Drinks, Cheesesteaks, Churro, Shareable Desserts, Subway", Hours- Mon - Fri:7:00 am - 10:00 pmSat:8:00 am - 10:00 pmSun:9:00 am - 10:00 pm,https://i4.ypcdn.com/blob/e93d64b9e7edfffe23dff053840d71753704d0ba_1000.jpg,https://i2.ypcdn.com/blob/5678b7c9249b0b74109d22c7ebd87c97cf896c0d_1000.jpg,,,,,,,
Restaurants,https://www.yellowpages.com/boise-id/mip/taco-bell-11166260#open-menu,https://www.yellowpages.com/boise-id/mip/taco-bell-11166260,Taco Bell,(208) 384-1254,3377 W State St,Boise,ID,83703,"Main, Deals and Combos, Sauce Packets, Specialties, Tacos, Taco Bell", Hours- Mon - Thu:7:00 am - 1:00 amFri - Sat:7:00 am - 2:00 amSun:7:00 am - 1:00 am,https://i1.ypcdn.com/blob/b698c467bc19a491a5a54dbc751906f7073bf228_1000.jpg,https://i1.ypcdn.com/blob/3135e3f05c89230151f0eeaa16608ffe9ddd8cf5_1000.jpg,,,,,,,
Restaurants,https://www.yellowpages.com/boise-id/mip/taco-time-10170188#open-menu,https://www.yellowpages.com/boise-id/mip/taco-time-10170188,Taco Time,(208) 376-3281,7965 W Fairview Ave,Boise,ID,83704,"Limited Time Offers, Crisp Burritos, Burritos, Favorites, Tacos, Salads, Value Menu, Breakfast, Sides, Dessert, Beverages, Sauce Packets, Signature Smoothies, Taco Time", Hours- Mon - Sat:7:30 am - 10:00 pmSun:7:30 am - 9:00 pm,https://i4.ypcdn.com/blob/90a86c0e9d5b3d35aff715dea79b673bb1e57592_1000.jpg,,,,,,,,
Restaurants,https://www.yellowpages.com/boise-id/mip/tangos-empanadas-13016640#open-menu,https://www.yellowpages.com/boise-id/mip/tangos-empanadas-13016640,Tangos Empanadas,(208) 322-3090,701 N Orchard St,Boise,ID,83706,"MEAT EMPANADAS 2.85, CHICKEN EMPANADAS 2.85, PORK EMPANADAS 2.85, FROM THE SEA 2.85 - 3.25, CHEESE EMPANADAS 2.85 - 3.25, VEGETARIAN EMPANADAS 2.85, DESSERT EMPANADAS (RICH AND SWEET)- 3.00 - 3.25, DESSERT EMPANADAS (FRUIT) - 3.00 - 3.25, SUBS 6.95, SIDES, Tangos Empanadas", Hours- Mon - Fri:11:00 am - 7:00 pmSat:11:00 am - 4:00 pmSunClosed,https://i4.ypcdn.com/blob/f618fc5a870c50f3939ad79d92278f237783214b_1000.jpg,https://i3.ypcdn.com/blob/e1f3c7000238d93c69ed6add20c0ac788c471f56_1000.jpg,https://i3.ypcdn.com/blob/a9c4e07f7ad3fea0050869b7a224a8f90955a361_1000.jpg,https://i1.ypcdn.com/blob/7b714efb783483980a789547beee22d47ec4f91a_1000.jpg,https://i4.ypcdn.com/blob/79fe6b2d2a5748c53e6387333f0b8a5d33acd758_1000.jpg,https://i1.ypcdn.com/blob/777f30bb735e848d34b9a4b775436d98c3c4a2dc_1000.jpg,https://i4.ypcdn.com/blob/273ee6cca9a21698f5774192bec0dabbb78fef1b_1000.jpg,,
Restaurants,https://www.yellowpages.com/boise-id/mip/the-balcony-club-16833685#open-menu,https://www.yellowpages.com/boise-id/mip/the-balcony-club-16833685,The Balcony Club,(208) 336-1313,150 N 8th St Ste 226,Boise,ID,83702,"Burgers, Appetizer, Specials, Salads, Sandwiches, The Balcony Club", Hours- Mon:4:00 pm - 2:00 amTueClosedThu - Sun:4:00 pm - 2:00 am,https://i3.ypcdn.com/blob/85283c8870a846222ef57a77f6e9a828135b5b82_1000.jpg,https://i4.ypcdn.com/blob/62f0d9d781d619c1f1e767d042799bf48cc28087_1000.jpg,https://i2.ypcdn.com/blob/57019e6fa4b72f829cc96eddc29b8e046b762f7a_1000.jpg,https://i2.ypcdn.com/blob/38000292db8bc29747b32198bca579fdc0439f06_1000.jpg,,,,,
Restaurants,https://www.yellowpages.com/boise-id/mip/the-chefs-hut-2470317#open-menu,https://www.yellowpages.com/boise-id/mip/the-chefs-hut-2470317,The Chef's Hut,(208) 376-3125,164 S Cole Rd,Boise,ID,83709,"Breakfast Combinations, 3 Egg Omelettes Breakfast, Small Appetites Breakfast, Salads, Soup and Chili Lunch, Sandwiches Lunch, The Chef's Hut", Hours- Mon - Sun:6:00 am - 2:00 pm,,,,,,,,,
Restaurants,https://www.yellowpages.com/boise-id/mip/the-gamekeeper-restaurant-1241319#open-menu,https://www.yellowpages.com/boise-id/mip/the-gamekeeper-restaurant-1241319,The Gamekeeper Restaurant,(208) 343-4611,1109 W Main St,Boise,ID,83702,"Appetizers, Appetizers - G K Selections, Soups And Salads, Soups Or Salads - G K Selections, Gamekeeper Specialties-g K Selections, Gamekeeper Specialties, Tableside Desserts And Coffees, Tableside Desserts And Coffees-g K Selection, Specialty Desserts, The Gamekeeper Restaurant",HoursDo you know the Hours-  for this business?,,,,,,,,,
Restaurants,https://www.yellowpages.com/boise-id/mip/the-melting-pot-13328326#open-menu,https://www.yellowpages.com/boise-id/mip/the-melting-pot-13328326,The Melting Pot,(208) 343-8800,200 N 6th St,Boise,ID,83702,"Four-Course Dinners for Two, Step 1: Choose a Cheese Fondue, Step 2: Choose Two Salads, Step 3: Entrées and Cooking Styles, Complete Dinner for Two, Create Your Own, Big Night Out Dinners for Two, Fondue Cooking Styles, Step 4: Choose a Chocolate Fondue, The Melting Pot", Hours- Mon - Thu:4:00 pm - 9:00 pmFri:4:00 pm - 10:00 pmSat:12:00 pm - 10:00 pmSun:12:00 pm - 9:00 pm,https://i1.ypcdn.com/blob/fd7473519645cbe1d0bf24aef550c6f13afcd4d2_1000.jpg,https://i4.ypcdn.com/blob/f8b2a0137f8f2115fa6350b96b4909ce4a117172_1000.jpg,https://i3.ypcdn.com/blob/f44621554c88d07ba94a65b0544f1b514508cf37_1000.jpg,https://i1.ypcdn.com/blob/e9a5c080a6b52593e1be75ebeb0f122c069fef81_1000.jpg,https://i4.ypcdn.com/blob/dc49b10e2bedb375d6c6ec8d83fb6a2abc0823ff_1000.jpg,https://i4.ypcdn.com/blob/d28025583f907e3cb567dd79e4f21c636f4ac9a5_1000.jpg,https://i3.ypcdn.com/blob/cc2b607037f927d0bdf5603763d9c90b3d3e280c_1000.jpg,,
Restaurants,https://www.yellowpages.com/boise-id/mip/trolley-house-1564458#open-menu,https://www.yellowpages.com/boise-id/mip/trolley-house-1564458,Trolley House,(208) 345-9255,1821 E Warm Springs Ave,Boise,ID,83712,"Specialty Salads, Specialty Sandwiches, Classic Sandwiches, Specialty Omelettes, Eggs Benedict, Trolley House", Hours- Mon - Sun:7:00 am - 3:00 pm,,,,,,,,,
Restaurants,https://www.yellowpages.com/boise-id/mip/wendys-17927774#open-menu,https://www.yellowpages.com/boise-id/mip/wendys-17927774,Wendy's,(208) 344-8284,3680 W State St,Boise,ID,83703,"Combos, Hamburgers, Chicken Sandwiches & Nuggets, Fresh-Made Salads, Fries & Sides, Breakfast Combos, Breakfast Meal Deals, Croissants, Biscuits, Classics, Coffee, Sides and More, Beverages, Wendy's", Hours- Mon - Thu:10:30 am - 11:00 pmFri - Sat:10:30 am - 12:00 amSun:10:30 am - 11:00 pm,https://i3.ypcdn.com/blob/e8233c7421b68e8d3e3806f44af18af816c2bb60_1000.jpg,,,,,,,,
Restaurants,https://www.yellowpages.com/boise-id/mip/wetzels-pretzels-12817151#open-menu,https://www.yellowpages.com/boise-id/mip/wetzels-pretzels-12817151,Wetzel's Pretzels,(208) 375-4093,350 N Milwaukee St,Boise,ID,83704,"Pretzels, Bits, Dog Bites, Dips, Drinks, Wetzel's Pretzels", Hours- Mon - Tue:10:00 am - 7:00 pmWed:11:00 am - 6:00 pmThu:10:00 am - 7:00 pmFri - Sat:10:00 am - 8:00 pmSun:11:00 am - 6:00 pm,https://i1.ypcdn.com/blob/491395cd8f019771a9209792af80d36ac2ea912c_1000.jpg,,,,,,,,
Restaurants,https://www.yellowpages.com/boise-id/mip/willowcreek-grill-raw-sushi-restaurant-14778879#open-menu,https://www.yellowpages.com/boise-id/mip/willowcreek-grill-raw-sushi-restaurant-14778879,Willowcreek Grill & Raw Sushi Restaurant,(208) 343-5544,2273 S Vista Ave,Boise,ID,83705,"Appetizers, Asian Inspired Starter Salads, Salads*, Sandwiches, Burgers*, Pitas & Wraps, Tacos, Entrees*, A La Carte, Sushi Combos*, Sashimi*, Nigiri Pairs*, Veggie Rolls, Willowcreek Grill & Raw Sushi Restaurant", Hours- Mon - Sat:11:00 am - 10:00 pmSunClosed,https://i1.ypcdn.com/blob/136cd1949488b1ef46184d40c2a18a89b3412776_1000.jpg,https://i3.ypcdn.com/blob/ee0d5ab017ba5b1822e940288b7d7ad5643154e5_1000.jpg,https://i4.ypcdn.com/blob/de8cc89ee05d02e4b35b55598a31e43177e190a2_1000.jpg,https://i2.ypcdn.com/blob/9fc180c56109bd99a798488d796284bbfc0c8b17_1000.jpg,https://i1.ypcdn.com/blob/810719f9096009e08334833b3ee3c2c924239136_1000.jpg,https://i3.ypcdn.com/blob/b4c9aa72b0e44869cab727e437f2211aaabc3d1f_1000.jpg,https://i1.ypcdn.com/blob/99209197f26e1d1d97e26eb04a0edc96f6ae087c_1000.jpg,,
Restaurants,https://www.yellowpages.com/boise-id/mip/yokozuna-teriyaki-10329093#open-menu,https://www.yellowpages.com/boise-id/mip/yokozuna-teriyaki-10329093,Yokozuna Teriyaki,(208) 377-3064,824 S Vista Ave,Boise,ID,83705,"Starters, Sushi And Salads, Katsu And Curry, Sweet Onion Bowls, Sweet Onion Bowls - Add Ons, Teriyaki Rice Bowls, Teriyaki Rice Bowls - Add Ons, Noodles, Yokozuna Teriyaki", Hours- Mon - Thu:10:30 am - 8:30 pmFri - Sat:10:30 am - 9:00 pmSun:12:00 pm - 7:00 pm,,,,,,,,,
Restaurants,https://www.yellowpages.com/boise-id/mip/zeppole-baking-co-14966740#open-menu,https://www.yellowpages.com/boise-id/mip/zeppole-baking-co-14966740,Zeppole Baking Co,(208) 338-1499,983 E Parkcenter Blvd,Boise,ID,83706,"Popular Items, Zeppole Baking Co", Hours- Mon - Sat:6:00 am - 6:00 pmSun:8:00 am - 4:00 pm,,,,,,,,,
Restaurants,https://www.yellowpages.com/boise-id/mip/zeppole-baking-co-2389224#open-menu,https://www.yellowpages.com/boise-id/mip/zeppole-baking-co-2389224,Zeppole Baking Co,(208) 345-2149,217 N 8th St,Boise,ID,83702,"Zeppole Sandwiches, Special Combinations, Zeppole Breads, Boise Organic Breads, Zeppole Soups, Zeppole Salad and Focaccia Wedges, Zeppole Pastries, Beverages, Chips and Extras, Zeppole Baking Co", Hours- Mon - Fri:6:30 am - 5:00 pmSat:8:00 am - 3:00 pmSunClosed,,,,,,,,,
Restaurants,https://www.yellowpages.com/burley-id/mip/main-street-burger-11884827#open-menu,https://www.yellowpages.com/burley-id/mip/main-street-burger-11884827,Main Street Burger,(208) 678-6068,333 W Main St,Burley,ID,83318,"Sample Menu, Main Street Burger", Hours- Tue - Sat:7:00 am - 3:00 pm,,,,,,,,,
Restaurants,https://www.yellowpages.com/burley-id/mip/snake-river-queen-10962756#open-menu,https://www.yellowpages.com/burley-id/mip/snake-river-queen-10962756,Snake River Queen,(208) 678-2628,181 W Highway 30,Burley,ID,83318,"Main, Prime Rib Diners every 3rd Friday, Snake River Queen", Hours- Mon - TueClosedWed - Sat:5:30 am - 9:00 pmSunClosed,,,,,,,,,
Restaurants,https://www.yellowpages.com/burley-id/mip/wendys-2410829#open-menu,https://www.yellowpages.com/burley-id/mip/wendys-2410829,Wendy's,(208) 678-9303,659 N Overland Ave,Burley,ID,83318,"Combos, Hamburgers, Chicken Sandwiches & Nuggets, Fresh-Made Salads, Fries & Sides, Breakfast Combos, Breakfast Meal Deals, Croissants, Biscuits, Classics, Coffee, Sides and More, Beverages, Wendy's", Hours- Mon - Sun:6:30 am - 12:00 am,https://i2.ypcdn.com/blob/48e665d7d5dca2cc8f35e8e5c35de85d8da1f743_1000.jpg,https://i1.ypcdn.com/blob/e8233c7421b68e8d3e3806f44af18af816c2bb60_1000.jpg,,,,,,,
Restaurants,https://www.yellowpages.com/caldwell-id/mip/idaho-pizza-company-15838777#open-menu,https://www.yellowpages.com/caldwell-id/mip/idaho-pizza-company-15838777,Idaho Pizza Company,(208) 454-3000,4816 Cleveland Blvd,Caldwell,ID,83605,"Starters & Salad Bar, Sandwiches, Idaho Pizza Creations, Create Your Own, Dessert, Idaho Pizza Company", Hours- Mon - Thu:11:00 am - 10:00 pmFri - Sat:11:00 am - 11:00 pmSun:11:00 am - 10:00 pm,https://i2.ypcdn.com/blob/b38655dfdc2fa15da43aa3b73ba8fc143c203261_1000.jpg,,,,,,,,
Restaurants,https://www.yellowpages.com/caldwell-id/mip/janitzio-restaurant-3008277#open-menu,https://www.yellowpages.com/caldwell-id/mip/janitzio-restaurant-3008277,Janitzio Restaurant,(208) 459-9660,322 S Kimball Ave,Caldwell,ID,83605,"Enchiladas, Burritos, Caldos, Fajitas, Salads, Vegetarian Plates, A La Carte, Lunch Menu, Lunch Combination Plates, Kids Menu, Side Orders, Dessert, Dinner Combinations, Janitzio Restaurant", Hours- Mon - Sat:11:00 am - 9:00 pm,,,,,,,,,
Restaurants,https://www.yellowpages.com/caldwell-id/mip/mancinos-subs-pizza-1131648#open-menu,https://www.yellowpages.com/caldwell-id/mip/mancinos-subs-pizza-1131648,Mancino's Subs & Pizza,(208) 459-7556,2412 Cleveland Blvd,Caldwell,ID,83605,"Soup and Salads, Pizza, Calzone's, Grinders, Extras, Mancino's Subs & Pizza", Hours- Mon - Sat:11:00 am - 8:00 pm,,,,,,,,,
Restaurants,https://www.yellowpages.com/caldwell-id/mip/papa-murphys-take-n-bake-pizza-11173038#open-menu,https://www.yellowpages.com/caldwell-id/mip/papa-murphys-take-n-bake-pizza-11173038,Papa Murphy's | Take 'N' Bake Pizza,(208) 454-0444,2707 S 10th Ave,Caldwell,ID,83605,"Create Your Own, Specials & Deals, Specialty Pizzas, Calzones, Dairy-Free Cheese, Stuffed Pizzas, Family Friendly, Crustless Keto-Friendly Pizzas, Salads & Sides, Desserts & Drinks, Papa Murphy's | Take 'N' Bake Pizza", Hours- Mon - Sun:10:00 am - 9:00 pm,https://i3.ypcdn.com/blob/d32b86ebdceecc876732182225b62e592e17e8db_1000.jpg,https://i4.ypcdn.com/blob/c9ca723f2e0ec0876a7cfb2f0b4876e73482cc1b_1000.jpg,https://i1.ypcdn.com/blob/7545cd03b3171a42c52741499658b879be632ca6_1000.jpg,https://i2.ypcdn.com/blob/6925487dadaa29c25a1240fea17d1394aad660df_1000.jpg,,,,,
Restaurants,https://www.yellowpages.com/caldwell-id/mip/subway-2114687#open-menu,https://www.yellowpages.com/caldwell-id/mip/subway-2114687,Subway,(208) 454-7827,2803 Blaine St,Caldwell,ID,83605,"Bottled Beverages, Fountain Drinks, Clubs, Breakfast, Classic Sandwiches, Deli Heroes, Italianos, Fresh Fit for Kids®, Kids' Sides, Wraps, Shareable Desserts, Sides, Cookies, Subway", Hours- Mon - Sun:8:00 am - 10:00 pm,https://i3.ypcdn.com/blob/b7b33894ced11234f0fdebbe37d929e10a869bbd_1000.jpg,https://i2.ypcdn.com/blob/0c78aa26dba2b7d5a90f9efd0369d8a4003454f5_1000.jpg,https://i1.ypcdn.com/blob/0c1416d9206bb8b0a119e989ae7fa0fbfac5f79a_1000.jpg,https://i3.ypcdn.com/blob/e93d64b9e7edfffe23dff053840d71753704d0ba_1000.jpg,,,,,
Restaurants,https://www.yellowpages.com/caldwell-id/mip/sunrise-family-restaurant-13926406#open-menu,https://www.yellowpages.com/caldwell-id/mip/sunrise-family-restaurant-13926406,Sunrise Family Restaurant,(208) 459-8557,2601 Cleveland Blvd,Caldwell,ID,83605,"Cereal and Fruit, Sides N Such, Beverages, Juices and Milk, Hand Dipped Milk Shakes, Sunrise Family Restaurant", Hours- Mon - Sat:6:00 am - 9:00 pmSun:7:00 am - 9:00 pm,,,,,,,,,
Restaurants,https://www.yellowpages.com/caldwell-id/mip/taco-bell-3133177#open-menu,https://www.yellowpages.com/caldwell-id/mip/taco-bell-3133177,Taco Bell,(208) 454-9869,2807 Cleveland Blvd,Caldwell,ID,83605,"Salads, Tacos, Burritos, Nachos, Gorditas, Sides, Taco Bell", Hours- Mon - Thu:7:00 am - 2:00 amFri - Sat:7:00 am - 3:00 amSun:7:00 am - 2:00 am,https://i3.ypcdn.com/blob/b698c467bc19a491a5a54dbc751906f7073bf228_1000.jpg,,,,,,,,
Restaurants,https://www.yellowpages.com/cambridge-id/mip/gateway-store-and-cafe-11172230#open-menu,https://www.yellowpages.com/cambridge-id/mip/gateway-store-and-cafe-11172230,Gateway Store and Cafe,(208) 257-3531,4330 Highway 71,Cambridge,ID,83610,"Good Morning!, Breakfast Loners, Burgers, Baskets, Stuff, Fountain Drinks & Ice Cream Treats, Gateway Store and Cafe", Hours- Mon - Sun:8:00 am - 8:00 pm,,,,,,,,,
Restaurants,https://www.yellowpages.com/cascade-id/mip/subway-13196622#open-menu,https://www.yellowpages.com/cascade-id/mip/subway-13196622,Subway,(208) 382-3434,321 S Main St,Cascade,ID,83611,"Fountain Drinks, Chips, Breakfast, Wraps, Salads, Kids Drinks, Cookies, Italianos, Classic Sandwiches, Fresh Fit for Kids®, No Bready Bowls®, Chicken, Clubs, Subway", Hours- Mon - Sun:8:30 am - 9:30 pm,https://i3.ypcdn.com/blob/e93d64b9e7edfffe23dff053840d71753704d0ba_1000.jpg,,,,,,,,
Restaurants,https://www.yellowpages.com/challis-id/mip/antonios-pizza-and-pasta-13442941#open-menu,https://www.yellowpages.com/challis-id/mip/antonios-pizza-and-pasta-13442941,Antonio's Pizza and Pasta,(208) 879-2210,431 E Main Ave,Challis,ID,83226,"Appetizers, Lunch Entrees, Dinner Entrees, Antonio's Pizza and Pasta", Hours- Mon - Thu:8:30 am - 10:00 pmFri - Sat:8:30 am - 11:00 pmSun:8:30 am - 10:00 pm,,,,,,,,,
Restaurants,https://www.yellowpages.com/chubbuck-id/mip/papa-murphys-take-n-bake-pizza-13723345#open-menu,https://www.yellowpages.com/chubbuck-id/mip/papa-murphys-take-n-bake-pizza-13723345,Papa Murphy's | Take 'N' Bake Pizza,(208) 237-7272,4837 Yellowstone Ave,Chubbuck,ID,83202,"Create Your Own, Specials & Deals, Specialty Pizzas, Calzones, Dairy-Free Cheese, Stuffed Pizzas, Family Friendly, Crustless Keto-Friendly Pizzas, Salads & Sides, Desserts & Drinks, Papa Murphy's | Take 'N' Bake Pizza", Hours- Mon - Thu:11:00 am - 8:30 pmFri - Sat:11:00 am - 9:30 pmSun:11:00 am - 8:30 pm,https://i3.ypcdn.com/blob/fa681ec10120a35ef8f7fae8521a8c557fdd0485_1000.jpg,https://i3.ypcdn.com/blob/d32b86ebdceecc876732182225b62e592e17e8db_1000.jpg,https://i3.ypcdn.com/blob/c9ca723f2e0ec0876a7cfb2f0b4876e73482cc1b_1000.jpg,https://i2.ypcdn.com/blob/4eb312e729585093a448f76077142174754b4a2b_1000.jpg,https://i4.ypcdn.com/blob/e922aa4f27de9e86091c1b4ebaa1fe8cb254436e_1000.jpg,https://i3.ypcdn.com/blob/c5bf294a6270e2df334a44719bea5a8fa676eee3_1000.jpg,https://i3.ypcdn.com/blob/b291bee2d7d4d72b185ea45ab5acfd884c6ceedb_1000.jpg,,
Restaurants,https://www.yellowpages.com/coeur-d-alene-id/mip/angelos-ristorante-11175974#open-menu,https://www.yellowpages.com/coeur-d-alene-id/mip/angelos-ristorante-11175974,Angelo's Ristorante,(208) 765-2850,846 N 4th St,Coeur D Alene,ID,83814,"Appetizers, Pasta, Steak & Lamb, Seafood & Fish, Children's Menu, Soup & Salad, Veal, Chicken, Eggplant, Angelo's Ristorante", Hours- Mon - Sun:5:00 pm - 10:00 pm,https://i1.ypcdn.com/blob/e3cec0ceae779f9290822b0c13f04448ad630e17_1000.jpg,https://i4.ypcdn.com/blob/b80d2343ce3e57afcf1cf047f5cf1433b3c74fc8_1000.jpg,https://i2.ypcdn.com/blob/949aceafdedac701ca2b080f1895f60b4ffd6a74_1000.jpg,https://i3.ypcdn.com/blob/898b5c7b3d40d6f92d123531aacfcae2556a9654_1000.jpg,https://i1.ypcdn.com/blob/2f3432f3ec9291eb6ca23081b4240134d796da72_1000.jpg,https://i1.ypcdn.com/blob/1ad33735c871e90ad6e7b2558ec57ce3d86137d8_1000.jpg,,,
Restaurants,https://www.yellowpages.com/coeur-d-alene-id/mip/canton-restaurant-1846341#open-menu,https://www.yellowpages.com/coeur-d-alene-id/mip/canton-restaurant-1846341,Canton Restaurant,(208) 665-5758,113 N 4th St,Coeur D Alene,ID,83814,"Appetizers, Soups, Noodle Soups, Other Dishes, Vegetables, Canton Restaurant", Hours- Mon - Sat:11:00 am - 9:00 pmSun:12:00 pm - 9:00 pm,https://i3.ypcdn.com/blob/78d7f1f40e940cc2c7b958231222fb130666dc98_1000.jpg,,,,,,,,
Restaurants,https://www.yellowpages.com/coeur-d-alene-id/mip/carusos-sandwiches-and-artisan-pizza-2422710#open-menu,https://www.yellowpages.com/coeur-d-alene-id/mip/carusos-sandwiches-and-artisan-pizza-2422710,Caruso's Sandwiches and Artisan Pizza,(208) 765-1001,202 W Ironwood Dr,Coeur D Alene,ID,83814,"Fresh Salads, Sandwiches, Pasta Bowls, Classics Pizza, Beverages, Caruso's Sandwiches and Artisan Pizza", Hours- Mon - Fri:9:00 am - 8:00 pmSat:10:00 am - 8:00 pmSun:10:00 am - 6:00 pm,https://i4.ypcdn.com/blob/28f853dff5816ccb323b665fdaeb3e244d6eb435_1000.jpg,,,,,,,,
Restaurants,https://www.yellowpages.com/coeur-d-alene-id/mip/jitterz-12626128#open-menu,https://www.yellowpages.com/coeur-d-alene-id/mip/jitterz-12626128,Jitterz,(208) 765-3438,2880 N Government Way,Coeur D Alene,ID,83815,"Soul Food, Quick Bites, Soul Baby, Fur Babies, Protein Drinks, Jitterz", Hours- Mon - Fri:4:30 am - 7:00 pmSat - Sun:6:00 am - 7:00 pm,,,,,,,,,
Restaurants,https://www.yellowpages.com/coeur-d-alene-id/mip/joeys-smokin-bbq-12432122#open-menu,https://www.yellowpages.com/coeur-d-alene-id/mip/joeys-smokin-bbq-12432122,Joey's Smokin' BBQ,(208) 765-5639,2360 N Old Mill Loop,Coeur D Alene,ID,83814,"Starters, Salads & Soups, Sides, Sandwiches & Grub, Joey's Smokin' BBQ",HoursDo you know the Hours-  for this business?,,,,,,,,,
Restaurants,https://www.yellowpages.com/coeur-d-alene-id/mip/lean-bean-1822584#open-menu,https://www.yellowpages.com/coeur-d-alene-id/mip/lean-bean-1822584,Lean Bean,(208) 765-2636,1207 E Sherman Ave,Coeur D Alene,ID,83814,"Deli Sandwiches, Coffee & Tea, Lb Kids, Red Bull & Zipfizz, Blended Drinks, Lean Bean", Hours- Mon - Fri:5:00 pm - 7:00 pmSat:6:00 am - 7:00 pmSun:6:00 am - 6:00 pm,,,,,,,,,
Restaurants,https://www.yellowpages.com/coeur-d-alene-id/mip/mackenzie-river-pizza-grill-pub-15067771#open-menu,https://www.yellowpages.com/coeur-d-alene-id/mip/mackenzie-river-pizza-grill-pub-15067771,"MacKenzie River Pizza, Grill & Pub",(208) 772-5111,405 W Canfield Ave,Coeur D Alene,ID,83815,"Starters, Salads, Soups, Sandwiches, Burgers, Pub Classics, Flatbreads, Rod & Reel Lunch Combo, Signature Pizzas, Pastas, Dessert, MacKenzie River Pizza, Grill & Pub", Hours- Mon - Thu:11:00 am - 9:00 pmFri - Sat:11:00 am - 10:00 pmSun:11:00 am - 9:00 pm,https://i1.ypcdn.com/blob/fcdcad2c2474fb591c7519c3ca59c49ba6e8cbe1_1000.jpg,https://i4.ypcdn.com/blob/f3a854881b0534f2ffb9329153964fd1a9411dd3_1000.jpg,https://i1.ypcdn.com/blob/ee2a484147df30685878cf80f2452658e3ab089f_1000.jpg,https://i1.ypcdn.com/blob/e25a3facfd56711ebca18caa688bcc44ff6ef30e_1000.jpg,https://i4.ypcdn.com/blob/dfbdacdebcca19a3e56617d106cb0d8655f8aa03_1000.jpg,https://i3.ypcdn.com/blob/d38419a89ac55442ab105c014a582978b310eeda_1000.jpg,https://i3.ypcdn.com/blob/c64e8d970990b5d41cd1d3ec999da937c79776e7_1000.jpg,,
Restaurants,https://www.yellowpages.com/coeur-d-alene-id/mip/olympia-restaurant-2169716#open-menu,https://www.yellowpages.com/coeur-d-alene-id/mip/olympia-restaurant-2169716,Olympia Restaurant,(208) 666-9495,301 E Lakeside Ave,Coeur D Alene,ID,83814,"Appetizers, Soups, Salads, Sandwiches - Souvlaki, Dessert, Olympia Restaurant", Hours- Tue - Thu:11:30 am - 3:00 pmFri - Sat:11:30 am - 8:00 pm,,,,,,,,,
Restaurants,https://www.yellowpages.com/coeur-d-alene-id/mip/paddys-sports-bar-14528006#open-menu,https://www.yellowpages.com/coeur-d-alene-id/mip/paddys-sports-bar-14528006,Paddy's Sports Bar,(208) 765-0701,601 W Appleway Ave,Coeur D Alene,ID,83814,"Starters, Salads, Sandwiches, Burgers, Food in Hand, Paddy's Sports Bar", Hours- Mon - Thu:11:00 am - 12:00 amFri - Sat:11:00 am - 2:00 amSun:9:00 am - 12:00 am,,,,,,,,,
Restaurants,https://www.yellowpages.com/coeur-d-alene-id/mip/panda-express-1728027#open-menu,https://www.yellowpages.com/coeur-d-alene-id/mip/panda-express-1728027,Panda Express,(208) 762-1015,400 W Wilbur Ave,Coeur D Alene,ID,83815,"Plate, Bigger Plate, Bowl, Family Feast, Appetizers, Panda Express", Hours- Mon - Sun:10:30 am - 10:30 pm,https://i1.ypcdn.com/blob/9f47f9c401a9dce2e57dc19520ebda133d264fe7_1000.jpg,,,,,,,,
Restaurants,https://www.yellowpages.com/coeur-d-alene-id/mip/pizza-factory-1146822#open-menu,https://www.yellowpages.com/coeur-d-alene-id/mip/pizza-factory-1146822,Pizza Factory,(208) 765-3434,503 W Appleway Ave,Coeur D Alene,ID,83814,"Pizza, Additional Toppings, Pasta, Sandwiches, Calzones, Soup & Salad, Appetizers, Beverages, Pizza Factory", Hours- Mon - Thu:11:00 am - 9:00 pmFri - Sat:11:00 am - 10:00 pmSun:11:00 am - 9:00 pm,https://i3.ypcdn.com/blob/ea90eef332f21ea1f90e73c53582238d0003880a_1000.jpg,https://i2.ypcdn.com/blob/e60cb0dacc0d8e9d53b9403e6a7c01b8e9c3671d_1000.jpg,https://i1.ypcdn.com/blob/aec48bcbdc7195ea8659bc89ce72c89a32ec2b38_1000.jpg,,,,,,
Restaurants,https://www.yellowpages.com/coeur-d-alene-id/mip/red-robin-gourmet-burgers-2567999#open-menu,https://www.yellowpages.com/coeur-d-alene-id/mip/red-robin-gourmet-burgers-2567999,Red Robin Gourmet Burgers,(208) 765-2421,1501 W Riverstone Dr,Coeur D Alene,ID,83814,"Appetizers, Burgers - Gourmet, Burgers - Chicken & More, Burgers - Finest, Burgers - Taverns, Red Robin Gourmet Burgers", Hours- Mon - Thu:11:00 am - 10:00 pmFri - Sat:11:00 am - 11:00 pmSun:11:00 am - 10:00 pm,,,,,,,,,
Restaurants,https://www.yellowpages.com/coeur-d-alene-id/mip/taco-bell-14546927#open-menu,https://www.yellowpages.com/coeur-d-alene-id/mip/taco-bell-14546927,Taco Bell,(208) 664-0439,217 W Appleway Ave,Coeur D Alene,ID,83814,"Salads, Tacos, Burritos, Nachos, Gorditas, Chalupas, Specialties, Desserts & Sides, Taco Bell", Hours- Mon - Thu:7:00 am - 3:00 amFri - Sat:7:00 am - 4:00 amSun:7:00 am - 3:00 am,https://i1.ypcdn.com/blob/1d59b94ca8f7c942a6f38af7d8430d0a8ce830a7_1000.jpg,https://i1.ypcdn.com/blob/b698c467bc19a491a5a54dbc751906f7073bf228_1000.jpg,,,,,,,
Restaurants,https://www.yellowpages.com/coeur-d-alene-id/mip/tito-macaroni-2529337#open-menu,https://www.yellowpages.com/coeur-d-alene-id/mip/tito-macaroni-2529337,Tito Macaroni,(208) 667-2782,210 E Sherman Ave Ste 107,Coeur D Alene,ID,83814,"Appetizers, Soups and Salads, Sandwiches, Classic Italian, Pizza, Tito Macaroni", Hours- Mon - Sun:11:00 am - 9:00 pm,,,,,,,,,
Restaurants,https://www.yellowpages.com/coeur-d-alene-id/mip/tomato-street-10506247#open-menu,https://www.yellowpages.com/coeur-d-alene-id/mip/tomato-street-10506247,Tomato Street,(208) 667-5000,221 W Appleway Ave,Coeur D Alene,ID,83814,"Popular Items, Tomato Street", Hours- Mon - Sun:11:00 am - 10:00 pm,https://i1.ypcdn.com/blob/f9e5258adb4e2e1a223ae2c89a2a03f78f4f0f20_1000.jpg,,,,,,,,
Restaurants,https://www.yellowpages.com/coeur-d-alene-id/mip/toro-viejo-2462402#open-menu,https://www.yellowpages.com/coeur-d-alene-id/mip/toro-viejo-2462402,Toro Viejo,(208) 667-7676,117 N 2nd St,Coeur D Alene,ID,83814,"Appetizers, Burritos, Desserts, Drinks, Toro Viejo", Hours- Mon - Thu:11:00 am - 9:00 pmFri - Sat:11:00 am - 10:00 pmSun:11:00 am - 9:00 pm,,,,,,,,,
Restaurants,https://www.yellowpages.com/coeur-d-alene-id/mip/valentinos-pizza-17192306#open-menu,https://www.yellowpages.com/coeur-d-alene-id/mip/valentinos-pizza-17192306,Valentinos Pizza,(208) 772-0220,219 W Canfield Ave,Coeur D Alene,ID,83815,"Popular Items, Valentinos Pizza", Hours- Mon - Thu:10:00 am - 9:00 pmFri - Sat:10:00 am - 10:00 pmSun:11:00 am - 8:30 pm,,,,,,,,,
Restaurants,https://www.yellowpages.com/eagle-id/mip/ahi-sushi-bar-10249015#open-menu,https://www.yellowpages.com/eagle-id/mip/ahi-sushi-bar-10249015,Ahi Sushi Bar,(208) 938-3474,1193 E Winding Creek Dr,Eagle,ID,83616,"Starters, Ahi 's Favorites, Rolls, Hand Rolls, Nigiri/sashimi, Nigiri/sashimi - Sashimi Combos, Ahi Sushi Bar", Hours- Mon - Thu:11:30 am - 9:00 pmFri:11:30 am - 9:30 pm,,,,,,,,,
Restaurants,https://www.yellowpages.com/eagle-id/mip/bella-aquila-restaurant-19173362#open-menu,https://www.yellowpages.com/eagle-id/mip/bella-aquila-restaurant-19173362,Bella Aquila Restaurant,(208) 938-1900,775 S Rivershore Ln Ste 100,Eagle,ID,83616,"Appetizers, Zuppa e Insalata, Frutti di Mare, Piatti di Pollo, Carne, Pasta, Bella Aquila Restaurant", Hours- Mon - Sat:11:30 am - 12:00 amSun:10:00 am - 12:00 am,https://i4.ypcdn.com/blob/ede1eec9b4dbf4f8c08e02a8db513c109e6a554b_1000.jpg,https://i2.ypcdn.com/blob/e7b91edcd84bb8b497fec45255c666cee1def411_1000.jpg,https://i2.ypcdn.com/blob/e3a6b8392fc034f935baa93f420c12accf3a2d22_1000.jpg,https://i2.ypcdn.com/blob/d8ae1d5f29ea0aa251ee35a3544052fc384bb39a_1000.jpg,https://i4.ypcdn.com/blob/b94e63feb55fa90be7a89b0dad05673a3dc66ecb_1000.jpg,https://i3.ypcdn.com/blob/8068919cc15f8ff448de78a4be4770950853b401_1000.jpg,https://i4.ypcdn.com/blob/7ed01b965cdf86af7253749a2eb62c7263a3ca23_1000.jpg,,
Restaurants,https://www.yellowpages.com/eagle-id/mip/davincis-1016826#open-menu,https://www.yellowpages.com/eagle-id/mip/davincis-1016826,Davinci's,(208) 939-2500,190 E State St,Eagle,ID,83616,"Appetizers, Salads, Bar Menu, Davinci's Classic Italian Sandwiches, Pasta Entrees, Pasta Additions, Leo's Favorites, House Specialties, Chicken And Veal Entrees, Desserts, Davinci's", Hours- Mon - Sun:4:00 pm - 10:00 pm,https://i3.ypcdn.com/blob/aff3c140c1a314f2153297e8dcd274f34bde80e6_1000.jpg,,,,,,,,
Restaurants,https://www.yellowpages.com/eagle-id/mip/eagle-hills-golf-course-13592541#open-menu,https://www.yellowpages.com/eagle-id/mip/eagle-hills-golf-course-13592541,Eagle Hills Golf Course,(208) 939-0402,605 N Edgewood Ln,Eagle,ID,83616,"Starters, Salad & Soup, Burgers, Classics, Flat Breads, Specials, Eagle Hills Golf Course", Hours- Mon - Fri:7:00 am - 8:00 pmSat - Sun:7:00 am - 9:00 pm,https://i1.ypcdn.com/blob/6df5057eefd85cf8ad34ae84a0c26f11f2f670d4_1000.jpg,https://i4.ypcdn.com/blob/962958fac86837455b12fff937f32e2b491452fe_1000.jpg,,,,,,,
Restaurants,https://www.yellowpages.com/eagle-id/mip/mongolian-of-eagle-11041781#open-menu,https://www.yellowpages.com/eagle-id/mip/mongolian-of-eagle-11041781,Mongolian of Eagle,(208) 938-0585,362 S Eagle Rd,Eagle,ID,83616,"Dinner, Drinks, Mongolian of Eagle", Hours- Mon - Sat:10:30 am - 9:00 pm,,,,,,,,,
Restaurants,https://www.yellowpages.com/eagle-id/mip/rembrandts-restaurant-2859123#open-menu,https://www.yellowpages.com/eagle-id/mip/rembrandts-restaurant-2859123,Rembrandt's Restaurant,(208) 938-1564,93 S Eagle Rd,Eagle,ID,83616,Rembrandt's Restaurant, Hours- Mon - Sat:6:30 am - 9:00 pmSun:7:00 am - 7:00 pm,https://i1.ypcdn.com/blob/9421192a53eff1708702effc8a21de98da0c89cd_1000.jpg,https://i2.ypcdn.com/blob/928794366ea79e0d8f5ea6dc10c5919547d95666_1000.jpg,https://i3.ypcdn.com/blob/c872d177d674c38f5bf0f85841f42294661ab54a_1000.jpg,https://i4.ypcdn.com/blob/d96aeab23c75a4b74ab94e7fcbb3280c487530c1_1000.jpg,https://i3.ypcdn.com/blob/4837b62d95fd9e7919c9306838b0e679e3f4c246_1000.jpg,https://i1.ypcdn.com/blob/114216bc6a277f6c1e38b1745e8b4aa14e10cf5f_1000.jpg,https://i2.ypcdn.com/blob/01dccc92c6142789eb9e4794ee343ec6ec710d5a_1000.jpg,,
Restaurants,https://www.yellowpages.com/eagle-id/mip/subway-10256862#open-menu,https://www.yellowpages.com/eagle-id/mip/subway-10256862,Subway,(208) 939-4567,182 E State St,Eagle,ID,83616,"Kids' Sides, Subway® Series, Chicken, Sidekicks, Breakfast, Shareable Desserts, Kids Drinks, Classic Sandwiches, Deli Heroes, Cheesesteaks, Cookies, Clubs, Bottled Beverages, Subway", Hours- Mon - Thu:7:00 am - 10:00 pmFri:7:00 am - 11:00 pmSat:8:00 am - 11:00 pmSun:9:00 am - 9:00 pm,https://i2.ypcdn.com/blob/8c4853cd5e3c0365b085fb1e0556dd09223328ea_1000.jpg,https://i1.ypcdn.com/blob/2d4cbdbe8c6f988398c0b919f2939362d0fab63e_1000.jpg,https://i3.ypcdn.com/blob/0c78aa26dba2b7d5a90f9efd0369d8a4003454f5_1000.jpg,https://i4.ypcdn.com/blob/e93d64b9e7edfffe23dff053840d71753704d0ba_1000.jpg,https://i1.ypcdn.com/blob/5678b7c9249b0b74109d22c7ebd87c97cf896c0d_1000.jpg,,,,
Restaurants,https://www.yellowpages.com/eagle-id/mip/the-perks-of-life-13707787#open-menu,https://www.yellowpages.com/eagle-id/mip/the-perks-of-life-13707787,The Perks of Life,(208) 938-7809,1540 E Iron Eagle Dr Ste 130,Eagle,ID,83616,"Salads, Sandwiches, Grilled Sandwiches, Extras, The Perks of Life", Hours- Mon - Fri:6:30 am - 4:00 pmSat:7:30 am - 4:00 pm,,,,,,,,,
Restaurants,https://www.yellowpages.com/eagle-id/mip/zen-bento-3000999#open-menu,https://www.yellowpages.com/eagle-id/mip/zen-bento-3000999,Zen Bento,(208) 938-4277,342 E State St,Eagle,ID,83616,"Zen Bento, Lo Carb Bento, Zen Salad, Pick Your Sauce, Upgrades & Sides, Sushi, Zen Bento", Hours- Mon - Sat:11:00 am - 8:00 pmSunClosed,,,,,,,,,
Restaurants,https://www.yellowpages.com/emmett-id/mip/hometown-buffet-15580387#open-menu,https://www.yellowpages.com/emmett-id/mip/hometown-buffet-15580387,HomeTown Buffet,(208) 365-1580,1109 S Washington Ave,Emmett,ID,83617,"Popular Items, HomeTown Buffet",HoursDo you know the Hours-  for this business?,,,,,,,,,
Restaurants,https://www.yellowpages.com/emmett-id/mip/pizza-factory-23654824#open-menu,https://www.yellowpages.com/emmett-id/mip/pizza-factory-23654824,Pizza Factory,(208) 398-7777,102 W 5th St,Emmett,ID,83617,"Pizza, Additional Toppings, Pasta, Sandwiches, Calzones, Soup & Salads, Appetizers, Beverages, Lunch Special, Pizza Factory", Hours- Mon - Thu:11:00 am - 9:00 pmFri - Sat:11:00 am - 10:00 pmSun:12:00 pm - 9:00 pm,https://i1.ypcdn.com/blob/ea90eef332f21ea1f90e73c53582238d0003880a_1000.jpg,https://i3.ypcdn.com/blob/e60cb0dacc0d8e9d53b9403e6a7c01b8e9c3671d_1000.jpg,https://i3.ypcdn.com/blob/aec48bcbdc7195ea8659bc89ce72c89a32ec2b38_1000.jpg,,,,,,
Restaurants,https://www.yellowpages.com/fruitland-id/mip/salsa-grill-23658601#open-menu,https://www.yellowpages.com/fruitland-id/mip/salsa-grill-23658601,Salsa Grill,(208) 452-7533,1619 N Whitley Dr,Fruitland,ID,83619,"Starters, Soups, Salads, Dinner Entrees - Mariscos, Homemade Desserts, Salsa Grill", Hours- Mon - Sun:11:00 am - 10:00 pm,,,,,,,,,
Restaurants,https://www.yellowpages.com/garden-city-id/mip/taco-bell-13772590#open-menu,https://www.yellowpages.com/garden-city-id/mip/taco-bell-13772590,Taco Bell,(208) 377-2888,8109 W Chinden Blvd,Garden City,ID,83714,,,,,,,,,,,
Restaurants,https://www.yellowpages.com/genesee-id/mip/pastime-bar-grill-15119686#open-menu,https://www.yellowpages.com/genesee-id/mip/pastime-bar-grill-15119686,Pastime Bar & Grill,(208) 285-1267,134 W Walnut St,Genesee,ID,83832,"Main, Beverages, Pastime Bar & Grill", Hours- Tue - Thu:5:00 pm - 9:00 pmFri - Sat:5:00 pm - 11:00 pm,,,,,,,,,
Restaurants,https://www.yellowpages.com/grangeville-id/mip/crema-cafe-11932500#open-menu,https://www.yellowpages.com/grangeville-id/mip/crema-cafe-11932500,Crema Cafe,(208) 983-0490,111 N College St,Grangeville,ID,83530,"Start, Burgers & Panini, Pizza Roma, Crema Cafe", Hours- Mon - Sat:7:00 am - 5:30 pm,,,,,,,,,
Restaurants,https://www.yellowpages.com/grangeville-id/mip/oscars-restaurant-13391941#open-menu,https://www.yellowpages.com/grangeville-id/mip/oscars-restaurant-13391941,Oscar's Restaurant,(208) 983-2106,101 E Main St,Grangeville,ID,83530,"Popular Items, Oscar's Restaurant", Hours- Tue - Sat:11:00 am - 9:00 pm,,,,,,,,,
Restaurants,https://www.yellowpages.com/grangeville-id/mip/subway-23413218#open-menu,https://www.yellowpages.com/grangeville-id/mip/subway-23413218,Subway,(208) 983-3054,179 Greenacres Ln,Grangeville,ID,83530,"Wraps, Fountain Drinks, Chips, Sidekicks, Clubs, Fresh Fit for Kids®, Hot Drinks, Salads, Kids Drinks, Cheesesteaks, Shareable Desserts, Kids' Sides, Drinks, Subway", Hours- Mon - Wed:7:00 am - 9:00 pmThu - Fri:7:00 am - 9:30 pmSat:8:00 am - 9:00 pmSun:9:00 am - 8:30 pm,https://i2.ypcdn.com/blob/e93d64b9e7edfffe23dff053840d71753704d0ba_1000.jpg,,,,,,,,
Restaurants,https://www.yellowpages.com/hailey-id/mip/cks-real-food-3166939#open-menu,https://www.yellowpages.com/hailey-id/mip/cks-real-food-3166939,Ck's Real Food,(208) 788-1223,320 S Main St,Hailey,ID,83333,"Starters, Soup and Salad, Entrees, Etc., Ck's Real Food", Hours- Mon - Sun:5:00 pm - 10:00 pm,https://i2.ypcdn.com/blob/f085cefc260308d7647c3a3710e33e78cecb08cd_1000.jpg,https://i2.ypcdn.com/blob/e0a0a71c5c863d677fc5e66f2c774d2afdc73526_1000.jpg,https://i1.ypcdn.com/blob/d9fb55201ee47cd9162c60efa133b5a0461266b6_1000.jpg,https://i3.ypcdn.com/blob/bb221058b243686b2f032bedba8d0cfc2041d8eb_1000.jpg,https://i3.ypcdn.com/blob/aaf05194b27ae3cd647e81c9e121a5caacc35e35_1000.jpg,https://i2.ypcdn.com/blob/8b7bce87d24ecaf00b6f6edab039948976bab76e_1000.jpg,https://i4.ypcdn.com/blob/8288f7975b05ee923983f50e736e4cdc3ec743a6_1000.jpg,,
Restaurants,https://www.yellowpages.com/hailey-id/mip/java-hailey-13265200#open-menu,https://www.yellowpages.com/hailey-id/mip/java-hailey-13265200,Java Hailey,(208) 788-2399,111 N 1st Ave,Hailey,ID,83333,"Main, Java Hailey", Hours- Mon - Fri:6:00 am - 6:00 pmSat - Sun:7:00 am - 4:00 pm,,,,,,,,,
Restaurants,https://www.yellowpages.com/hailey-id/mip/lago-azul-mexican-salvadorian-restaurant-10644253#open-menu,https://www.yellowpages.com/hailey-id/mip/lago-azul-mexican-salvadorian-restaurant-10644253,Lago Azul Mexican & Salvadorian Restaurant,(208) 578-1700,14 W Croy St,Hailey,ID,83333,"Especialidades De El Lago Azul, Featured Items, Sopas de El Lago Azul (Soups), Desayunos (Breakfast), Botanas (Appetizers), Platos Pequenos (Small Plates), Platos De Tacos, Lago Azul Mexican & Salvadorian Restaurant", Hours- Mon - Fri:11:00 am - 8:00 pmSun:11:00 am - 8:00 pm,,,,,,,,,
Restaurants,https://www.yellowpages.com/hailey-id/mip/wiseguy-pizza-pie-313491#open-menu,https://www.yellowpages.com/hailey-id/mip/wiseguy-pizza-pie-313491,Wiseguy Pizza Pie,(208) 788-8688,121 N Main St,Hailey,ID,83333,"Appetizers & Salads, Sandwiches & Calzones, Real Fancy Pies, New York Style Pizza, Wiseguy Pizza Pie", Hours- Mon - Sun:11:30 am - 9:00 pm,,,,,,,,,
Restaurants,https://www.yellowpages.com/hayden-id/mip/blue-plate-cafe-23441106#open-menu,https://www.yellowpages.com/hayden-id/mip/blue-plate-cafe-23441106,Blue Plate Cafe,(208) 772-7860,12825 N Emerald Dr,Hayden,ID,83835,"Quick Starts, Greens & Things, Blue Plates, Two Fisters, Blue Plate Cafe",HoursDo you know the Hours-  for this business?,,,,,,,,,
Restaurants,https://www.yellowpages.com/hayden-id/mip/kfc-1098320#open-menu,https://www.yellowpages.com/hayden-id/mip/kfc-1098320,Kfc,(208) 762-4959,279 W Orchard Ave,Hayden,ID,83835,"World Famous Chicken, Big Box Meals, Signature Sandwiches, Bucket Meals, Cheetos®, Kfc", Hours- Mon - Thu:10:00 am - 10:00 pmFri - Sat:10:00 am - 11:00 pmSun:10:00 am - 10:00 pm,https://i2.ypcdn.com/blob/fa8ef838d8994886be72ebf1de42a9f357621113_1000.jpg,https://i1.ypcdn.com/blob/e2d62c8e710d9dbe727157e36201256d44fcf977_1000.jpg,https://i1.ypcdn.com/blob/da07f8735c7b51c2bc8192d22b802ce2288a854f_1000.jpg,https://i3.ypcdn.com/blob/a09bdfc18d85b08b5b9d6fb9db3b29ef0b8912df_1000.jpg,https://i1.ypcdn.com/blob/9782e00c7f3a82563307482c5c0b5ab34013499a_1000.jpg,https://i1.ypcdn.com/blob/93776d1953384ed912556a5a3e93b39a04a846fe_1000.jpg,https://i2.ypcdn.com/blob/85257f589b625386bf2e667acdf466db239ac303_1000.jpg,,
Restaurants,https://www.yellowpages.com/hayden-id/mip/papa-murphys-take-n-bake-pizza-16142421#open-menu,https://www.yellowpages.com/hayden-id/mip/papa-murphys-take-n-bake-pizza-16142421,Papa Murphy's | Take 'N' Bake Pizza,(208) 772-0552,285 W Prairie Ave Ste M,Hayden,ID,83835,"Create Your Own, Specials & Deals, Specialty Pizzas, Calzones, Dairy-Free Cheese, Stuffed Pizzas, Family Friendly, Crustless Keto-Friendly Pizzas, Salads & Sides, Desserts & Drinks, Papa Murphy's | Take 'N' Bake Pizza", Hours- Mon - Thu:11:00 am - 8:00 pmFri - Sat:11:00 am - 9:00 pmSun:11:00 am - 8:00 pm,https://i3.ypcdn.com/blob/f536da1ff18c49555abb35250020e9e6c0a277bc_1000.jpg,https://i4.ypcdn.com/blob/d32b86ebdceecc876732182225b62e592e17e8db_1000.jpg,https://i1.ypcdn.com/blob/c9ca723f2e0ec0876a7cfb2f0b4876e73482cc1b_1000.jpg,https://i4.ypcdn.com/blob/6925487dadaa29c25a1240fea17d1394aad660df_1000.jpg,https://i3.ypcdn.com/blob/ca015db9dd14ea9c23bdd8fde16e086f37e40214_1000.jpg,https://i2.ypcdn.com/blob/99077ff256cb9a4dbac26c772db4bf3003f6f791_1000.jpg,https://i2.ypcdn.com/blob/9379cc1c07fa9e3b5e77d80ba12017fba1ab89e1_1000.jpg,,
Restaurants,https://www.yellowpages.com/hayden-id/mip/sargents-restaurant-lounge-13382127#open-menu,https://www.yellowpages.com/hayden-id/mip/sargents-restaurant-lounge-13382127,Sargents Restaurant & Lounge,(208) 772-4114,9021 N Government Way,Hayden,ID,83835,"Starters, Salads & Soup, Sandwiches & Burgers, Specialty Entrees, Steaks & Chops, Kids, Sides, Sargents Restaurant & Lounge", Hours- Mon - Thu:11:00 am - 9:00 pmFri - Sat:11:00 am - 11:00 pm,https://i1.ypcdn.com/blob/7ff122614214a8cae8efd17e3e98388907a5d181_1000.jpg,https://i3.ypcdn.com/blob/dbf614fdfee5c9b4c4f613da5184544649ee2dab_1000.jpg,,,,,,,
Restaurants,https://www.yellowpages.com/hayden-id/mip/zips-drive-in-11780736#open-menu,https://www.yellowpages.com/hayden-id/mip/zips-drive-in-11780736,Zip's Drive In,(208) 772-6442,9310 N Government Way,Hayden,ID,83835,"Combo Meals, Fry Items, Chicken & Fish, Zip's Drive In", Hours- Mon - Sat:10:30 am - 8:00 pmSun:9:00 am - 8:00 pm,https://i2.ypcdn.com/blob/d857356f7f69c4357494697c29ac63800cbd9168_1000.jpg,https://i4.ypcdn.com/blob/240d945387ed6394d4fc976bde36cd6fa1f925f4_1000.jpg,,,,,,,
Restaurants,https://www.yellowpages.com/hazelton-id/mip/pizza-cache-3177273#open-menu,https://www.yellowpages.com/hazelton-id/mip/pizza-cache-3177273,Pizza Cache,(208) 829-4285,325 Main St,Hazelton,ID,83335,"Specialty Pizza, Appetizers, Salads, Calzones, Sandwiches, Pizza Cache", Hours- Mon - Fri:11:00 am - 8:30 pmSat:11:00 am - 9:00 pm,,,,,,,,,
Restaurants,https://www.yellowpages.com/heyburn-id/mip/java-express-14071704#open-menu,https://www.yellowpages.com/heyburn-id/mip/java-express-14071704,Java Express,(208) 679-5282,1820 S Highway 30,Heyburn,ID,83336,"Popular Items, Java Express",HoursDo you know the Hours-  for this business?,,,,,,,,,
Restaurants,https://www.yellowpages.com/homedale-id/mip/subway-19094430#open-menu,https://www.yellowpages.com/homedale-id/mip/subway-19094430,Subway,(208) 337-5777,321 E Idaho Ave,Homedale,ID,83628,"Salads, Shareable Desserts, Drinks, Fresh Fit for Kids®, Fountain Drinks, Kids' Sides, Chips, No Bready Bowls®, Sidekicks, Kids Drinks, Cheesesteaks, Classic Sandwiches, Wraps, Subway", Hours- Mon - Sun:8:00 am - 10:00 pm,https://i3.ypcdn.com/blob/e93d64b9e7edfffe23dff053840d71753704d0ba_1000.jpg,https://i2.ypcdn.com/blob/fda7848a8d86f3e64d3fb204d20d4ae2a5091882_1000.jpg,https://i4.ypcdn.com/blob/6276f56ab35338780459a512be8b2d2ac8717b4e_1000.jpg,https://i3.ypcdn.com/blob/5376c688c5b7b0f1fc4a35f8995f24f071205148_1000.jpg,https://i4.ypcdn.com/blob/37262133db3f216df09757f7755b64a757245e51_1000.jpg,,,,
Restaurants,https://www.yellowpages.com/idaho-falls-id/mip/blue-hashi-13923666#open-menu,https://www.yellowpages.com/idaho-falls-id/mip/blue-hashi-13923666,Blue Hashi,(208) 525-2583,2894 S 25th E,Idaho Falls,ID,83404,"Appetizers, Salads, Traditional Rolls, Hand Rolls, Fried Rolls, Blue Hashi", Hours- Mon - Thu:11:00 am - 10:00 pmFri:11:00 am - 11:00 pmSat:12:00 pm - 11:00 pm,https://i4.ypcdn.com/blob/904518a979f8c637261ae846836164681f6e5be8_1000.jpg,,,,,,,,
Restaurants,https://www.yellowpages.com/idaho-falls-id/mip/burger-king-12847991#open-menu,https://www.yellowpages.com/idaho-falls-id/mip/burger-king-12847991,Burger King,(208) 522-8120,1463 W Broadway St,Idaho Falls,ID,83402,"Meals, A la Carte, Family Bundles, Sides, Desserts, Burger King", Hours- Mon - Sat:6:00 am - 12:00 amSun:7:00 am - 11:00 pm,https://i1.ypcdn.com/blob/d45b4d7cded0d03d9a5e3b88eb5a71cba3efbe86_1000.jpg,https://i1.ypcdn.com/blob/54f09040719998e0eb27ce687c1a826795d43317_1000.jpg,,,,,,,
Restaurants,https://www.yellowpages.com/idaho-falls-id/mip/cedrics-family-restaurant-17387067#open-menu,https://www.yellowpages.com/idaho-falls-id/mip/cedrics-family-restaurant-17387067,Cedric's Family Restaurant,(208) 524-4383,1260 W Broadway St,Idaho Falls,ID,83402,"Omelettes, Traditional‎ Breakfast, Skillets‎, Bennies Cedric's Style, House Favorites‎, Featured Items, Sweet Pancakes, Waffle, French Toast, Combos, Main, Cedric's Family Restaurant", Hours- Mon - Sat:6:00 am - 9:00 pmSun:7:00 am - 8:00 pm,,,,,,,,,
Restaurants,https://www.yellowpages.com/idaho-falls-id/mip/dominos-pizza-21450703#open-menu,https://www.yellowpages.com/idaho-falls-id/mip/dominos-pizza-21450703,Domino's Pizza,(208) 523-7530,945 W Broadway St,Idaho Falls,ID,83402,"Build Your Own, Artisan Pizzas, American Legends, Feast Pizzas, Pizza Choices, Sandwiches, Pastas, Chicken, Breads, Chips, Desserts, Extras, Drinks, Domino's Pizza", Hours- Mon - Thu:10:00 am - 12:00 amFri - Sat:10:00 am - 1:00 amSun:10:30 am - 12:00 am,https://i2.ypcdn.com/blob/84c1fc179de0044d7d18edf3ae93bcd27fffffa9_1000.jpg,https://i4.ypcdn.com/blob/dfd43f5dbdcc34c1e7f06d1f0811bb02fd8484a5_1000.jpg,https://i3.ypcdn.com/blob/c261b3359abb8e3fa5580c8358437bd24bcc6645_1000.jpg,https://i1.ypcdn.com/blob/a6369fe3a697c640f0cc7809c19615d4190ea238_1000.jpg,https://i3.ypcdn.com/blob/9f02e09e6cda111dcbcce75d323fa2524d81526b_1000.jpg,https://i1.ypcdn.com/blob/7dd558c82488114e93a37aa685d2a00b1f7a0b9f_1000.jpg,https://i4.ypcdn.com/blob/446a56e6a7085bf83d86d9236c4570120da7f623_1000.jpg,,
Restaurants,https://www.yellowpages.com/idaho-falls-id/mip/frosty-gator-11849774#open-menu,https://www.yellowpages.com/idaho-falls-id/mip/frosty-gator-11849774,Frosty Gator,(208) 529-3334,298 D St,Idaho Falls,ID,83402,"Shareables, Gator Ultimate Salads, Gator Faves, Burgers, Sandwiches/Wraps, Frosty Gator", Hours- Mon - Fri:10:00 am - 11:00 pmSat - Sun:11:00 am - 12:00 am,https://i3.ypcdn.com/blob/ef08c2200d65bbe77d7dda6a85cd60320d75ee27_1000.jpg,https://i3.ypcdn.com/blob/013132c792ea9082e03fd975aa66bbfcbe4be8f9_1000.jpg,,,,,,,
Restaurants,https://www.yellowpages.com/idaho-falls-id/mip/garcias-mexican-restaurant-12005707#open-menu,https://www.yellowpages.com/idaho-falls-id/mip/garcias-mexican-restaurant-12005707,Garcia's Mexican Restaurant,(208) 522-2000,2180 E 17th St,Idaho Falls,ID,83404,"Appetizers, Soups, Salads, Sandwiches, Nachos And Quesadilla, Sizzling Fajitas, Garcia's Grill, Chimis And Burritos, Tacos, Enchiladas And Favorites, Desserts, Garcia's Mexican Restaurant", Hours- Mon - Thu:11:00 am - 10:00 pmFri - Sat:11:00 am - 11:00 pmSun:11:00 am - 10:00 pm,,,,,,,,,
Restaurants,https://www.yellowpages.com/idaho-falls-id/mip/jaliscos-mexican-restaurant-11147357#open-menu,https://www.yellowpages.com/idaho-falls-id/mip/jaliscos-mexican-restaurant-11147357,Jalisco's Mexican Restaurant,(208) 552-2021,2107 E 17th St,Idaho Falls,ID,83404,"Botanas, Enchiladas, Fajitas, Side Orders, Burritos, Jalisco's Mexican Restaurant", Hours- Mon - Thu:11:00 am - 10:00 pmFri - Sat:11:00 am - 11:00 pmSun:11:00 am - 9:00 pm,https://i3.ypcdn.com/blob/f8a94b034f4117391d9ef9e44c2f4ca8b04ba1a3_1000.jpg,,,,,,,,
Restaurants,https://www.yellowpages.com/idaho-falls-id/mip/leos-place-restaurants-14056086#open-menu,https://www.yellowpages.com/idaho-falls-id/mip/leos-place-restaurants-14056086,Leo's Place Restaurants,(208) 529-5090,155 S Holmes Ave,Idaho Falls,ID,83401,"Appetizers, Salads, Our Favorite Sandwiches, Sandwich Combos, 1/4 Lb. Burger Combos, Leo's Place Restaurants", Hours- Mon - Sun:11:00 am - 11:00 pm,https://i2.ypcdn.com/blob/a0a81a5363ec139e4fae6a714ae39eeb2066c496_1000.jpg,,,,,,,,
Restaurants,https://www.yellowpages.com/idaho-falls-id/mip/los-panchos-bakery-2305772#open-menu,https://www.yellowpages.com/idaho-falls-id/mip/los-panchos-bakery-2305772,Los Panchos Bakery,(208) 524-8331,486 F St,Idaho Falls,ID,83402,"Main Menu, Los Panchos Bakery", Hours- Tue - Sun:10:30 am - 4:00 pm,,,,,,,,,
Restaurants,https://www.yellowpages.com/idaho-falls-id/mip/mcdonalds-10870657#open-menu,https://www.yellowpages.com/idaho-falls-id/mip/mcdonalds-10870657,McDonald's,(208) 529-4608,650 E 17th St,Idaho Falls,ID,83404,"McCafé, McCafé Bakery, Shareables, Fries, Sides & More, Sweets & Treats, McDonald's", Hours- Mon - Thu:7:00 am - 11:30 pmFri - Sat:5:30 am - 1:00 amSun:7:00 am - 11:30 pm,https://i3.ypcdn.com/blob/08ca20cf3db809a5dceb57c1e02c1436ec754a9f_1000.jpg,,,,,,,,
Restaurants,https://www.yellowpages.com/idaho-falls-id/mip/mcdonalds-2261618#open-menu,https://www.yellowpages.com/idaho-falls-id/mip/mcdonalds-2261618,McDonald's,(208) 522-1621,1485 W Broadway St,Idaho Falls,ID,83402,"McCafé, McCafé Bakery, Beverages, Individual Items, Snacks, Sides & More, McDonald's", Hours- Mon - Sun:Open 24 Hours- ,https://i2.ypcdn.com/blob/08ca20cf3db809a5dceb57c1e02c1436ec754a9f_1000.jpg,,,,,,,,
Restaurants,https://www.yellowpages.com/idaho-falls-id/mip/mitchells-restaurant-1244265#open-menu,https://www.yellowpages.com/idaho-falls-id/mip/mitchells-restaurant-1244265,Mitchell's Restaurant,(208) 525-8834,615 E Iona Rd,Idaho Falls,ID,83401,"Appetizers & Sides, Breakfast, Omelets, Homemade Soup & Chili, Side Orders, Mitchell's Restaurant", Hours- Mon - Thu:5:00 am - 11:30 pmFri - Sat:Open 24 Hours- Sun:5:00 am - 11:30 pm,,,,,,,,,
Restaurants,https://www.yellowpages.com/idaho-falls-id/mip/papa-murphys-take-n-bake-pizza-11058109#open-menu,https://www.yellowpages.com/idaho-falls-id/mip/papa-murphys-take-n-bake-pizza-11058109,Papa Murphy's | Take 'N' Bake Pizza,(208) 528-9800,1857 W Broadway St,Idaho Falls,ID,83402,"Create Your Own, Specials & Deals, Specialty Pizzas, Calzones, Dairy-Free Cheese, Stuffed Pizzas, Family Friendly, Crustless Keto-Friendly Pizzas, Salads & Sides, Desserts & Drinks, Papa Murphy's | Take 'N' Bake Pizza", Hours- Mon - Thu:11:00 am - 8:30 pmFri - Sat:11:00 am - 9:30 pmSun:11:00 am - 8:30 pm,https://i3.ypcdn.com/blob/d32b86ebdceecc876732182225b62e592e17e8db_1000.jpg,https://i1.ypcdn.com/blob/c9ca723f2e0ec0876a7cfb2f0b4876e73482cc1b_1000.jpg,https://i1.ypcdn.com/blob/6925487dadaa29c25a1240fea17d1394aad660df_1000.jpg,https://i4.ypcdn.com/blob/e922aa4f27de9e86091c1b4ebaa1fe8cb254436e_1000.jpg,https://i1.ypcdn.com/blob/c5bf294a6270e2df334a44719bea5a8fa676eee3_1000.jpg,https://i1.ypcdn.com/blob/b291bee2d7d4d72b185ea45ab5acfd884c6ceedb_1000.jpg,https://i3.ypcdn.com/blob/9b0fa8dad4b0d1cb19ee336e2ec7fb7a080a0321_1000.jpg,,
Restaurants,https://www.yellowpages.com/idaho-falls-id/mip/pizza-hut-17358702#open-menu,https://www.yellowpages.com/idaho-falls-id/mip/pizza-hut-17358702,Pizza Hut,(208) 523-7411,1972 W Broadway St,Idaho Falls,ID,83402,"Pizza, P'zone, Pasta, Wings, Sides, Dessert, Drinks, Pizza Hut", Hours- Mon - Sun:10:00 am - 12:00 am,https://i2.ypcdn.com/blob/e28d7b49f0249334684a0e98ad6b6d42eb211768_1000.jpg,https://i1.ypcdn.com/blob/e0c209a165f1fadfbc489cbe74ad5b7c348d6ae3_1000.jpg,https://i4.ypcdn.com/blob/d8916242364cd19d11adf3cd29d4603d9ddecd0b_1000.jpg,https://i4.ypcdn.com/blob/55400c154b1de6d0bbaf356039728506bc76e271_1000.jpg,https://i1.ypcdn.com/blob/3992a4146d419cfd21a8ce4a8d016f47c4091f87_1000.jpg,https://i3.ypcdn.com/blob/10b505d59cc249e44328463b2a7493338b2993d0_1000.jpg,https://i3.ypcdn.com/blob/1024705099cd109d5f37d050789cb6725b34a927_1000.jpg,,
Restaurants,https://www.yellowpages.com/idaho-falls-id/mip/plum-loco-1835029#open-menu,https://www.yellowpages.com/idaho-falls-id/mip/plum-loco-1835029,Plum Loco,(208) 524-3663,235 Cliff St,Idaho Falls,ID,83402,"Appetizers, Lunch Specials, Salads, Burros (Mini), Burros, Plum Loco", Hours- MonClosedTue - Thu:11:00 am - 8:00 pmFri - Sat:11:00 am - 9:00 pmSunClosed,,,,,,,,,
Restaurants,https://www.yellowpages.com/idaho-falls-id/mip/pockets-inc-13420988#open-menu,https://www.yellowpages.com/idaho-falls-id/mip/pockets-inc-13420988,Pockets Inc,(208) 525-9962,905 E Lincoln Rd,Idaho Falls,ID,83401,"Salads, Chili & Soup, Idaho Potatoes, More Good Stuff, Beverages, Pockets Inc", Hours- Mon - Sat:11:00 am - 2:00 amSun:4:00 pm - 2:00 am,,,,,,,,,
Restaurants,https://www.yellowpages.com/idaho-falls-id/mip/puerto-vallarta-mexican-restaurant-12462858#open-menu,https://www.yellowpages.com/idaho-falls-id/mip/puerto-vallarta-mexican-restaurant-12462858,Puerto Vallarta Mexican Restaurant,(208) 523-0437,340 E Anderson St,Idaho Falls,ID,83401,"Sizzling Fajitas, Platillos Mexicanos, A La Carte, Platos Para Ninos, Platos Americanos, Comienzos, Tostadas, Deluxe Tostadas, Enchiladas Grandes, Taco Salads, Beverages, Postres / Desserts, Mariscos, Puerto Vallarta Mexican Restaurant", Hours- Mon - Sun:11:00 am - 9:00 pm,,,,,,,,,
Restaurants,https://www.yellowpages.com/idaho-falls-id/mip/red-robin-gourmet-burgers-20459685#open-menu,https://www.yellowpages.com/idaho-falls-id/mip/red-robin-gourmet-burgers-20459685,Red Robin Gourmet Burgers,(208) 528-8866,2450 E 17th St,Idaho Falls,ID,83404,"Appetizers, Fresh Salads, Wraps And Soups, Burgers, Chicken Sandwiches, Entrees, Other Selections, Perfect Combos, Sides & Subs - Substitutions For Fries, Sides & Subs - Add-on Sides, Desserts, Red Robin Gourmet Burgers", Hours- Mon - Thu:11:00 am - 10:00 pmFri - Sat:11:00 am - 11:00 pmSun:11:00 am - 10:00 pm,,,,,,,,,
Restaurants,https://www.yellowpages.com/idaho-falls-id/mip/subway-10994938#open-menu,https://www.yellowpages.com/idaho-falls-id/mip/subway-10994938,Subway,(208) 552-6582,2220 Channing Way,Idaho Falls,ID,83404,"Bottled Beverages, Cheesesteaks, Clubs, Chicken, Deli Heroes, Sidekicks, Salads, Drinks, Hot Drinks, No Bready Bowls®, Shareable Desserts, Churro, Subway® Series, Subway", Hours- Mon - Sun:8:00 am - 10:30 pm,https://i4.ypcdn.com/blob/e93d64b9e7edfffe23dff053840d71753704d0ba_1000.jpg,,,,,,,,
Restaurants,https://www.yellowpages.com/idaho-falls-id/mip/the-snakebite-restaurant-10584886#open-menu,https://www.yellowpages.com/idaho-falls-id/mip/the-snakebite-restaurant-10584886,The SnakeBite Restaurant,(208) 525-2522,401 Park Ave,Idaho Falls,ID,83402,"Sample Menu Items, Happy Hour, Featured Items, The SnakeBite Restaurant", Hours- MonClosedTue - Sat:11:00 am - 9:00 pmSunClosed,https://i2.ypcdn.com/blob/d37923596b56356bb2e001e5c285e49f07f50c20_1000.jpg,https://i1.ypcdn.com/blob/7be0725a2c2fedcbbcb94465cbbe32184b2ec892_1000.jpg,https://i2.ypcdn.com/blob/b03bab18b6bdc3da15007b8967d0854f2d166670_1000.jpg,https://i3.ypcdn.com/blob/7ae7e08666bd72e32e766b4828933b05e736b37b_1000.jpg,https://i4.ypcdn.com/blob/0eeafcd50da0ffd67625b5d025e0b0cf545fab93_1000.jpg,,,,
Restaurants,https://www.yellowpages.com/idaho-falls-id/mip/wendys-2413477#open-menu,https://www.yellowpages.com/idaho-falls-id/mip/wendys-2413477,Wendy's,(208) 522-5322,1333 Northgate Mile,Idaho Falls,ID,83401,"Combos, Hamburgers, Chicken Sandwiches & Nuggets, Fresh-Made Salads, Fries & Sides, Breakfast Combos, Breakfast Meal Deals, Croissants, Biscuits, Classics, Coffee, Sides and More, Beverages, Wendy's", Hours- Mon - Thu:6:30 am - 11:00 pmFri - Sat:6:30 am - 11:30 pmSun:8:00 am - 10:00 pm,https://i4.ypcdn.com/blob/e8233c7421b68e8d3e3806f44af18af816c2bb60_1000.jpg,,,,,,,,
Restaurants,https://www.yellowpages.com/jerome-id/mip/china-village-14557593#open-menu,https://www.yellowpages.com/jerome-id/mip/china-village-14557593,China Village,(208) 324-8777,123 S Alder St,Jerome,ID,83338,"Appetizers, Soup, House Specials, Pork, Chicken, Beef, Seafood, Vegetables, Chopsuey, Chow Mein And Egg Foo Young, Fried Rice And Lo Mein, Beverages, China Village", Hours- Mon - Thu:10:00 am - 9:30 pmFri:10:00 am - 10:00 pmSat:10:00 am - 11:00 pm,,,,,,,,,
Restaurants,https://www.yellowpages.com/jerome-id/mip/garibaldis-1382207#open-menu,https://www.yellowpages.com/jerome-id/mip/garibaldis-1382207,Garibaldi's,(208) 644-9218,801 S Lincoln Ave,Jerome,ID,83338,"Appetizers, Sopas, Taco Salad, Burritos, Seafood, Side Orders, Desserts, Garibaldi's", Hours- Mon - Sat:11:00 am - 10:00 pmSun:11:00 am - 9:00 pm,,,,,,,,,
Restaurants,https://www.yellowpages.com/jerome-id/mip/subway-2232706#open-menu,https://www.yellowpages.com/jerome-id/mip/subway-2232706,Subway,(208) 324-0505,393 Democracy,Jerome,ID,83338,"Churro, Chips, Deli Heroes, Cheesesteaks, Drinks, Classic Sandwiches, Kids Drinks, Sides, Clubs, Chicken, Fountain Drinks, Shareable Desserts, Kids' Sides, Subway", Hours- Mon - Wed:7:00 am - 9:00 pmThu - Fri:7:00 am - 10:00 pmSat:8:00 am - 10:00 pmSun:9:00 am - 9:00 pm,https://i2.ypcdn.com/blob/e93d64b9e7edfffe23dff053840d71753704d0ba_1000.jpg,,,,,,,,
Restaurants,https://www.yellowpages.com/kamiah-id/mip/hub-bar-grill-10423507#open-menu,https://www.yellowpages.com/kamiah-id/mip/hub-bar-grill-10423507,Hub Bar & Grill,(208) 935-2211,406 Main St,Kamiah,ID,83536,"Sandwiches & Such, Sandwiches, Kids Menu, More, Burgers and Such, More Such Stuff, Salads, Lo Carb Salad Plate, Extras, Dinner, Appetizers, Hub Bar & Grill", Hours- Mon - Sun:6:00 am - 2:30 am,https://i1.ypcdn.com/blob/af65e9453ea50eab5b36161eaec88160a379541d_1000.jpg,https://i4.ypcdn.com/blob/fab259c5f4329eb2e6c32b326b0f16f9d3ad329b_1000.jpg,https://i3.ypcdn.com/blob/bc2b49b467995c563b5aa2003524f504592847ee_1000.jpg,https://i4.ypcdn.com/blob/30f26c6a990bf69a857a6bbcca1447afe980bbfb_1000.jpg,,,,,
Restaurants,https://www.yellowpages.com/kellogg-id/mip/humdinger-drive-in-11679514#open-menu,https://www.yellowpages.com/kellogg-id/mip/humdinger-drive-in-11679514,Humdinger Drive-In,(208) 786-7395,205 N Hill St,Kellogg,ID,83837,"Sundaes, Frozen Hummers, Desserts, Banana Splits, Milk Shakes, Humdinger Drive-In", Hours- Mon - Sat:11:00 am - 9:00 pmSun:12:00 pm - 9:00 pm,,,,,,,,,
Restaurants,https://www.yellowpages.com/kellogg-id/mip/wildcat-pizza-16175105#open-menu,https://www.yellowpages.com/kellogg-id/mip/wildcat-pizza-16175105,Wildcat Pizza,(208) 784-1957,604 Bunker Ave,Kellogg,ID,83837,"Salads, Specialty Pizzas, Sides, Desserts, Wildcat Pizza", Hours- Mon - Thu:11:00 am - 9:00 pmFri - Sat:11:00 am - 11:00 pmSun:11:00 am - 9:00 pm,,,,,,,,,
Restaurants,https://www.yellowpages.com/ketchum-id/mip/leftys-bar-grill-15838672#open-menu,https://www.yellowpages.com/ketchum-id/mip/leftys-bar-grill-15838672,Lefty's Bar & Grill,(208) 726-2744,205 State Highway 75,Ketchum,ID,83340,"From the Grill, Hoagies, Salads & Soups, Munchies, Souvenirs, Kids, Cold Craft Beer, Cold Bottled Beer, Micro-Brew and Import Bottles, Domestics, Wine, Soft Drinks & Desserts, Lefty's Bar & Grill", Hours- Mon - Fri:11:30 am - 12:00 amSat - Sun:11:00 am - 12:00 am,https://i2.ypcdn.com/blob/b875442468db47d108c877a9af82c9d884d1b5f6_1000.jpg,https://i3.ypcdn.com/blob/8ee7f7687743ecce6fc022f1eb456d010a812662_1000.jpg,https://i1.ypcdn.com/blob/85c32fa8d7f24820daa62835cc3e29d00a2f97c0_1000.jpg,https://i3.ypcdn.com/blob/7f1ad7f93a652f04e17f19d8b204d3ae44f67bdc_1000.jpg,,,,,
Restaurants,https://www.yellowpages.com/ketchum-id/mip/ricos-authentic-italian-1494746#open-menu,https://www.yellowpages.com/ketchum-id/mip/ricos-authentic-italian-1494746,Rico's - Authentic Italian,(208) 726-7426,200 N Main St,Ketchum,ID,83340,"Starters, Salads and Soups, Pasta and Dinners, Bambino's, Dessert, Beverages, Soft Drinks, Hot Beverages, Henry Weinhard's, Beer, Bottled, Draft, Vino Rossa, Italy, Rico's - Authentic Italian"," Hours-  mon 05:00pm-10:00pm, tue 05:00pm-10:00pm, wed 05:00pm-10:00pm, thu 05:00pm-10:00pm, fri 05:00pm-10:00pm, sat 05:00pm-10:00pm, sun 05:00pm-10:00pm, Holiday Hours- : Rico' -Auhhenic Ilin i open ju bou evey nigh of he ye excep Chim nigh nd he Sudy befoe he ki mounin cloe. If you wn o mke ue, ju give u cll. -Rico's -Authhtic Italia is op just about vry ight of th yar xcpt Christmas ight a th Saturay bfor th ski moutai closs. If you wat to mak sur, just giv us a call. , R' -Auhh Iala ju abu vy gh f h ya x Chma gh a h Sauay bf h k mua l. If yu wa mak u, ju gv u a all.",https://i1.ypcdn.com/blob/f91a10e23167d48a1f30a34b64f99bdd0e9e2d68_1000.jpg,https://i1.ypcdn.com/blob/f07dc24eef038a1edc709d767e85445ab0333b51_1000.jpg,https://i3.ypcdn.com/blob/ee0f66460b42e9efb09af23f8c6b1ed16e6885ee_1000.jpg,https://i1.ypcdn.com/blob/e671c0f4dab668ce0948dbf93244bc9e72eb0a38_1000.jpg,https://i3.ypcdn.com/blob/db183eb21e8972e69ad38ef6e3dfe9cb1bac223b_1000.jpg,https://i4.ypcdn.com/blob/c6b3e0a47cabb8e71c146c1d9e9b70eec177b92f_1000.jpg,https://i1.ypcdn.com/blob/c6420d5440b9547e7884e468421ee139fcafa219_1000.jpg,,
Restaurants,https://www.yellowpages.com/ketchum-id/mip/sawtooth-club-14520916#open-menu,https://www.yellowpages.com/ketchum-id/mip/sawtooth-club-14520916,Sawtooth Club,(208) 726-5233,231 N Main St,Ketchum,ID,83340,"Appetizers - Small Plates - Salads, Entrees, Burgers, Sandwiches, Etc., White Wines by the Glass, Red Wines by The Glass, Sawtooth Club", Hours- Mon - Sun:5:30 pm - 11:30 pmHappy Hours- Mon - Sun4:30 pm - 6:00 pm,https://i2.ypcdn.com/blob/ef0cda5f53357c16e794338c1b99038b3ae3160e_1000.jpg,https://i3.ypcdn.com/blob/dab2cdb5490eef33248220a51c137834ea5e2a53_1000.jpg,https://i3.ypcdn.com/blob/c89fa066b5962f28add8ad3f91ca5afaa6ca45a1_1000.jpg,https://i4.ypcdn.com/blob/a802f8a056c70c22312282f24e9da69a3357a77d_1000.jpg,https://i4.ypcdn.com/blob/9eede602b4d57b3e0dc11afed6b894c0ecb6279a_1000.jpg,https://i1.ypcdn.com/blob/9c8585afb61b9bc13808293a12d03abf1d4a08a6_1000.jpg,https://i1.ypcdn.com/blob/956e452a34f1d59a675e65b998ddbb6db6b2da5a_1000.jpg,,
Restaurants,https://www.yellowpages.com/kimberly-id/mip/maxies-pizza-pasta-14204944#open-menu,https://www.yellowpages.com/kimberly-id/mip/maxies-pizza-pasta-14204944,Maxie's Pizza & Pasta,(208) 423-5880,626 Main St N,Kimberly,ID,83341,"Real Italian Pizza, Maxie's Pizza Combinations, Real Italian Pasta, Salads, Bread, Wings, It's on the Grill, Specialty Hot Sandwiches, Maxie's Pizza & Pasta", Hours- Mon - Fri:11:00 am - 9:00 pmSat:11:00 am - 10:00 pmSunClosed,https://i1.ypcdn.com/blob/3fc608e0f63f88b8bd8785af61a79cd711837199_1000.jpg,,,,,,,,
Restaurants,https://www.yellowpages.com/kuna-id/mip/papa-murphys-take-n-bake-pizza-1169533#open-menu,https://www.yellowpages.com/kuna-id/mip/papa-murphys-take-n-bake-pizza-1169533,Papa Murphy's | Take 'N' Bake Pizza,(208) 922-9962,1545 Linder Rd,Kuna,ID,83634,"Create Your Own, Specials & Deals, Specialty Pizzas, Calzones, Dairy-Free Cheese, Stuffed Pizzas, Family Friendly, Crustless Keto-Friendly Pizzas, Salads & Sides, Desserts & Drinks, Papa Murphy's | Take 'N' Bake Pizza", Hours- Mon - Sun:10:00 am - 9:00 pm,https://i1.ypcdn.com/blob/d32b86ebdceecc876732182225b62e592e17e8db_1000.jpg,https://i4.ypcdn.com/blob/c9ca723f2e0ec0876a7cfb2f0b4876e73482cc1b_1000.jpg,https://i1.ypcdn.com/blob/1952154d0e9e5d6c972293528b97c61489f2bcb3_1000.jpg,https://i1.ypcdn.com/blob/6925487dadaa29c25a1240fea17d1394aad660df_1000.jpg,,,,,
Restaurants,https://www.yellowpages.com/lewiston-id/mip/antonios-pizza-pasta-13058870#open-menu,https://www.yellowpages.com/lewiston-id/mip/antonios-pizza-pasta-13058870,Antonio's Pizza & Pasta,(208) 746-6262,1407 Main St,Lewiston,ID,83501,"Popular Items, Antonio's Pizza & Pasta", Hours- Mon - Sun:11:00 am - 9:00 pm,,,,,,,,,
Restaurants,https://www.yellowpages.com/lewiston-id/mip/emperor-of-india-king-thai-11211594#open-menu,https://www.yellowpages.com/lewiston-id/mip/emperor-of-india-king-thai-11211594,Emperor of India King Thai,(208) 798-4804,858 Main St,Lewiston,ID,83501,"Indian Cuisine, Rotiya (Breads), Drinks, Thai cuisine, Soups and Appetizers, Fruits, Fish And Seafoods, Curry, Thai Noodles & Fried Rice, Beer & Wine, Red Wines, White Wines:, Beers, Desserts, Emperor of India King Thai", Hours- Tue - Thu:11:30 am - 9:30 pmFri - Sat:11:30 am - 10:00 pmSun:11:30 am - 9:30 pm,,,,,,,,,
Restaurants,https://www.yellowpages.com/lewiston-id/mip/jeffreys-restaurant-18382018#open-menu,https://www.yellowpages.com/lewiston-id/mip/jeffreys-restaurant-18382018,Jeffrey's Restaurant,(208) 746-9482,244 Thain Rd,Lewiston,ID,83501,"Breakfast, Specialties, Main, Omelettes, Eating Lite, Classic, Side Orders, Beverages, Jeffrey's Restaurant", Hours- Mon - Fri:5:00 am - 10:00 pmSat:5:00 am - 9:00 pm,,,,,,,,,
Restaurants,https://www.yellowpages.com/lewiston-id/mip/mandarin-pine-restaurant-1666774#open-menu,https://www.yellowpages.com/lewiston-id/mip/mandarin-pine-restaurant-1666774,Mandarin Pine Restaurant,(208) 746-4919,833 21st St,Lewiston,ID,83501,"Appetizers, Pork, Beef, Chicken, Side Orders, Mandarin Pine Restaurant", Hours- Mon - Fri:11:00 am - 9:00 pmSat - Sun:11:00 am - 10:00 pm,,,,,,,,,
Restaurants,https://www.yellowpages.com/lewiston-id/mip/meriwethers-bistro-11976913#open-menu,https://www.yellowpages.com/lewiston-id/mip/meriwethers-bistro-11976913,Meriwether's Bistro,(208) 748-1151,621 21st St,Lewiston,ID,83501,"Main, Omelets & Eggs, Sides, House Specialties, Meriwether's Bistro", Hours- Mon - Thu:6:00 am - 9:00 pmFri - Sat:6:00 am - 10:00 pmSun:6:00 am - 9:00 pm,https://i2.ypcdn.com/blob/cd56f3254c71913bcfcb0483c6921053317b35f0_1000.jpg,https://i4.ypcdn.com/blob/ccdbd52c67db4abe12ba384b6633878ba52b3829_1000.jpg,https://i1.ypcdn.com/blob/cca68461b75f62c51fba59425c7e2e27dd990cb8_1000.jpg,https://i3.ypcdn.com/blob/c4b9e49bc1ea073d68a5db9b8f8ec4bad67bd9d4_1000.jpg,https://i1.ypcdn.com/blob/b0a698a5371613fc6529d54ade7a1e717fc230a9_1000.jpg,https://i3.ypcdn.com/blob/a710e54c6889b70407c45ec2b7331c4d2f2b84f5_1000.jpg,https://i1.ypcdn.com/blob/a6b70f8e2987236e5a4200af295c86248e124832_1000.jpg,,
Restaurants,https://www.yellowpages.com/lewiston-id/mip/subway-10945824#open-menu,https://www.yellowpages.com/lewiston-id/mip/subway-10945824,Subway,(208) 746-6000,247 Thain Rd Ste 102,Lewiston,ID,83501,"Salads, Shareable Desserts, Classic Sandwiches, Sidekicks, Cookies, Deli Heroes, No Bready Bowls®, Clubs, Chicken, Kids Drinks, Breakfast, Italianos, Wraps, Subway", Hours- Mon - Fri:7:00 am - 9:00 pmSat:8:00 am - 9:00 pmSun:9:00 am - 9:00 pm,https://i1.ypcdn.com/blob/e93d64b9e7edfffe23dff053840d71753704d0ba_1000.jpg,,,,,,,,
Restaurants,https://www.yellowpages.com/lewiston-id/mip/waha-grill-1409616#open-menu,https://www.yellowpages.com/lewiston-id/mip/waha-grill-1409616,Waha Grill,(208) 746-7761,40787 Waha Rd,Lewiston,ID,83501,"Breakfast, Sides, Appetizers, Kids' Menu, Entrees, Specialty Sandwiches, ""The Best"" Homemade Pizza' S, Watering Hole, Beer & Wine, Bottles, Cans, Wine by the Glass, Waha Grill", Hours- Thu - Sat:11:00 am - 9:00 pmSun:12:00 pm - 8:00 pm,,,,,,,,,
Restaurants,https://www.yellowpages.com/lewiston-id/mip/wayback-cafe-15189460#open-menu,https://www.yellowpages.com/lewiston-id/mip/wayback-cafe-15189460,Wayback Cafe,(208) 743-2396,2138 13th Ave,Lewiston,ID,83501,"Appetizers, Soups, Salads, Wayback Favorites, Pasta And Rice, Burgers And More Burgers, Chicken Sandwiches, Sandwiches, Wraps, Desserts, Adult Beverages, Soda Fountain And Beverages, Soft Drink, Wayback Cafe", Hours- Mon - Sun:6:30 am - 9:30 pm,https://i3.ypcdn.com/blob/1e22d392c0c5f23fc4951db2e87a381dad3b8bb4_1000.jpg,https://i4.ypcdn.com/blob/59b199d043933709f099930a3ed525c3741d2de2_1000.jpg,https://i3.ypcdn.com/blob/319259aace084a89948b3cf7a109046430efc4d2_1000.jpg,https://i4.ypcdn.com/blob/1e916e507904508b7cbac58f5e072cc1c5003b10_1000.jpg,https://i4.ypcdn.com/blob/11c8b57f7e153878ba5590f0ddd91a466c1d9452_1000.jpg,,,,
Restaurants,https://www.yellowpages.com/malad-city-id/mip/subway-2934119#open-menu,https://www.yellowpages.com/malad-city-id/mip/subway-2934119,Subway,(208) 766-7827,215 E 50 S,Malad City,ID,83252,"Sides, Cookies, Fresh Fit for Kids®, Kids' Sides, Subway® Series, Breakfast, Bottled Beverages, Salads, Shareable Desserts, Cheesesteaks, Sidekicks, Churro, No Bready Bowls®, Subway", Hours- Mon - Fri:7:00 am - 9:00 pmSat:8:00 am - 9:00 pmSunClosed,https://i2.ypcdn.com/blob/e93d64b9e7edfffe23dff053840d71753704d0ba_1000.jpg,,,,,,,,
Restaurants,https://www.yellowpages.com/mccall-id/mip/crustys-pizza-12340305#open-menu,https://www.yellowpages.com/mccall-id/mip/crustys-pizza-12340305,Crusty's Pizza,(208) 634-5005,214 Lenora St,Mccall,ID,83638,"Traditional Pizzas, Speciality Pizzas, Vegetarian Pizzas, Build your Own Pizza, Crusty's Pizza", Hours- Wed - Sun:4:00 pm - 10:00 pm,https://i1.ypcdn.com/blob/79c67608e965b1626d7d2a19b7ed643817b8ede6_1000.jpg,,,,,,,,
Restaurants,https://www.yellowpages.com/mccall-id/mip/lardos-grill-saloon-12906031#open-menu,https://www.yellowpages.com/mccall-id/mip/lardos-grill-saloon-12906031,Lardos Grill & Saloon,(208) 634-8191,600 W Lake St,Mccall,ID,83638,"Snacks & Appetizers, Soup & Salad, On the Lighter Side, Specialty Sandwiches, Sandwiches, Chicken Sandwiches, Italian Dinners, Dinners, Lardo Burgers, Lunch Specials, Cold Beverages, Hot Beverages, Kiddy Kocktails, Lardos Grill & Saloon", Hours- Mon - Thu:11:30 am - 11:00 pmFri - Sat:11:30 am - 12:00 amSun:11:30 am - 11:00 pm,https://i4.ypcdn.com/blob/f6d95c364167f971be174634ead3159c8ec2b8f5_1000.jpg,https://i2.ypcdn.com/blob/eff85a1755f2a8aa50e65f23f374c95bfce9f512_1000.jpg,https://i3.ypcdn.com/blob/d6ada46ae50198f2f5fa03cdcd1c8561cada307a_1000.jpg,https://i4.ypcdn.com/blob/a8c75e0090ca56b081dd0cc00df0843c4fde15f4_1000.jpg,https://i1.ypcdn.com/blob/a4ccd44288973d1baebf19d03bcad364cd874387_1000.jpg,https://i1.ypcdn.com/blob/7d0c1ab891e4c2372f57b3836da4e9597b07e853_1000.jpg,https://i3.ypcdn.com/blob/69eeb31beef5567049cb439384f382a97405bbd2_1000.jpg,,
Restaurants,https://www.yellowpages.com/mccall-id/mip/subway-17031526#open-menu,https://www.yellowpages.com/mccall-id/mip/subway-17031526,Subway,(208) 634-2855,320 N 3rd St,Mccall,ID,83638,"Salads, Shareable Desserts, Chicken, Sides, Churro, No Bready Bowls®, Kids Drinks, Fresh Fit for Kids®, Chips, Deli Heroes, Drinks, Kids' Sides, Breakfast, Subway", Hours- Mon - Sun:8:30 am - 9:30 pm,https://i3.ypcdn.com/blob/e93d64b9e7edfffe23dff053840d71753704d0ba_1000.jpg,,,,,,,,
Restaurants,https://www.yellowpages.com/mccammon-id/mip/taco-time-2133173#open-menu,https://www.yellowpages.com/mccammon-id/mip/taco-time-2133173,Taco Time,(208) 254-3838,898 E Highway 30,Mccammon,ID,83250,"Crisp Burritos, Burritos, Favorites, Tacos, Salads, Value Menu, Sides, Dessert, Beverages, Sauce Packets, Taco Time", Hours- Mon - Sun:10:00 am - 10:00 pm,https://i1.ypcdn.com/blob/90a86c0e9d5b3d35aff715dea79b673bb1e57592_1000.jpg,,,,,,,,
Restaurants,https://www.yellowpages.com/meridian-id/mip/applebees-2663359#open-menu,https://www.yellowpages.com/meridian-id/mip/applebees-2663359,Applebee's,(208) 855-0343,1460 N Eagle Rd,Meridian,ID,83642,"Appetizers, Salads, Chicken, Burgers, Desserts, Applebee's", Hours- Mon - Thu:11:00 am - 12:00 amFri - Sat:11:00 am - 1:00 amSun:11:00 am - 12:00 am,https://i2.ypcdn.com/blob/f1f0b7a87c24cc3a037c386bfc556acbe6801032_1000.jpg,https://i2.ypcdn.com/blob/a98fe047acdbaaee8750e63a58af72c5be6f0798_1000.jpg,https://i2.ypcdn.com/blob/45080b3199ca8c90761c7465852fe4e350b2576c_1000.jpg,,,,,,
Restaurants,https://www.yellowpages.com/meridian-id/mip/arbys-2771382#open-menu,https://www.yellowpages.com/meridian-id/mip/arbys-2771382,Arby's,(208) 855-9599,1270 N Eagle Rd,Meridian,ID,83642,"Market Fresh® Sandwiches, Market Fresh® Wraps & Salads, Crispy Juicy Chicken, Slow Roasted Beef, Drinks & Desserts, Arby's", Hours- Mon - Thu:9:30 am - 10:30 pmFri - Sat:9:30 am - 11:00 pmSun:9:30 am - 10:30 pm,https://i1.ypcdn.com/blob/05d6296294a167d1645a51a4de36ec7ec518ea88_1000.jpg,,,,,,,,
Restaurants,https://www.yellowpages.com/meridian-id/mip/blimpie-16403317#open-menu,https://www.yellowpages.com/meridian-id/mip/blimpie-16403317,Blimpie,(208) 887-1234,1535 N Main St,Meridian,ID,83642,"Limited Time Subs, Premium Subs, Classic Subs, Hot Subs, Drinks & Sides, Kids Meals, Local Favorites, Catering, Blimpie", Hours- Mon - Fri:7:00 am - 8:00 pmSat:8:00 am - 8:00 pmSun:10:00 am - 5:00 pm,https://i4.ypcdn.com/blob/fae2070b242764b9f84803544547dc3aec14191e_1000.jpg,https://i2.ypcdn.com/blob/4290872fbabe339a7eb31d7a46668375675cd22b_1000.jpg,https://i3.ypcdn.com/blob/c7b0d85b2dfb70f52a46d5a5fa71c5f393a4bbfa_1000.jpg,,,,,,
Restaurants,https://www.yellowpages.com/meridian-id/mip/buffalo-wild-wings-22985268#open-menu,https://www.yellowpages.com/meridian-id/mip/buffalo-wild-wings-22985268,Buffalo Wild Wings,(208) 288-5485,3223 E Louise Dr,Meridian,ID,83642,"Sauce Appeal, Seasonings, Shareables, Sides, Savory Salads, Hand-spun Wings, Boneless Wings, Wing Combo, Tender & Popcorn Shrimp, Wraps & Buffalitos, Beefy Burgers, Satisfying Sandwiches, Wild Flatbreads, Buffalo Wild Wings", Hours- Mon - Wed:11:00 am - 11:00 pmThu - Sat:11:00 am - 12:00 amSun:11:00 am - 11:00 pm,https://i1.ypcdn.com/blob/fc0fe741deb9c4db9713f7f7bea196c35465bb25_1000.jpg,https://i3.ypcdn.com/blob/ba428b4d9877baae3bbf9397f15d3842ebb901e7_1000.jpg,https://i1.ypcdn.com/blob/aa300145b2f5d715ca4aff6da48f05e57b721ca8_1000.jpg,https://i2.ypcdn.com/blob/8ec290c6415a294fd43988db969a82d192c047fe_1000.jpg,https://i2.ypcdn.com/blob/581463e58d85368462f8899f290fc9354f690600_1000.jpg,https://i2.ypcdn.com/blob/5247d1c51bd020d6dca4c80c38ae8b8e037f26bf_1000.jpg,https://i1.ypcdn.com/blob/4ca7b328b91c4ee92d2ef2fe648f0f7af1343832_1000.jpg,,
Restaurants,https://www.yellowpages.com/meridian-id/mip/burger-king-1788207#open-menu,https://www.yellowpages.com/meridian-id/mip/burger-king-1788207,Burger King,(208) 887-2198,300 E Fairview Ave,Meridian,ID,83642,"Meals, A La Carte, Family Bundles, Sides, Desserts, Burger King", Hours- Mon - Sat:6:00 am - 12:00 amSun:7:00 am - 12:00 am,https://i4.ypcdn.com/blob/b9c3d2e580b5713a7fdb8f97fab68d7c5ca042a9_1000.jpg,https://i4.ypcdn.com/blob/54f09040719998e0eb27ce687c1a826795d43317_1000.jpg,,,,,,,
Restaurants,https://www.yellowpages.com/meridian-id/mip/cookies-and-cream-17450673#open-menu,https://www.yellowpages.com/meridian-id/mip/cookies-and-cream-17450673,Cookies and Cream,(208) 888-5639,2032 E Overland Rd Ste 100,Meridian,ID,83642,"Traditional Pizza's, Gourmet Pizza's, Salads, Featured Items, Stuffed Pizza's, Calzones, Specialty Subs, Cold Subs, Cookies and Cream",HoursDo you know the Hours-  for this business?,,,,,,,,,
Restaurants,https://www.yellowpages.com/meridian-id/mip/dennys-12597798#open-menu,https://www.yellowpages.com/meridian-id/mip/dennys-12597798,Denny's,(208) 898-9599,3155 E Fairview Ave,Meridian,ID,83642,"Family Pack, Classic Slams, Specialty Pancakes & Crepes, Signature Breakfasts, Breakfast Sides, Starters, Salads, Burgers, Melts & Handhelds, Dinners & Skillets, Sides, Kids, 55+, Denny's", Hours-  M-Su 24hr (Hours may vary.),https://i1.ypcdn.com/blob/e9837134e9780001ee465bc52e0a1d2dcf9b2cbc_1000.jpg,https://i2.ypcdn.com/blob/cf4070e017fb50872956ef6a872d4f9cd27f377b_1000.jpg,https://i4.ypcdn.com/blob/e9bd4a5fb919de5f69c2ad9d14c567777574ed79_1000.jpg,https://i2.ypcdn.com/blob/c1f7f53f3ad40c0a79a9fb7172493de26b8eace7_1000.jpg,https://i3.ypcdn.com/blob/9e09517a654506c6707860ee98317428c2a9b2ff_1000.jpg,https://i3.ypcdn.com/blob/9b4f8863b41c0164bed396db772fd71b5430a05a_1000.jpg,https://i3.ypcdn.com/blob/9810ff2f4acc0cc4c1bf4bb9094c3835f63124c6_1000.jpg,,
Restaurants,https://www.yellowpages.com/meridian-id/mip/epis-a-basque-restaurant-14254606#open-menu,https://www.yellowpages.com/meridian-id/mip/epis-a-basque-restaurant-14254606,Epi's A Basque Restaurant,(208) 884-0142,1115 N Main St,Meridian,ID,83642,"Appetizers, Lighter Fare, Children's Menu, Entrees, Dessert, Epi's A Basque Restaurant", Hours- MonClosedTue - Sat:5:00 am - 8:30 pmSunClosed,,,,,,,,,
Restaurants,https://www.yellowpages.com/meridian-id/mip/express-cafe-1698316#open-menu,https://www.yellowpages.com/meridian-id/mip/express-cafe-1698316,Express Cafe,(208) 888-3745,400 E Fairview Ave,Meridian,ID,83642,"Breakfast Omelets, Breakfast & Gravy, Breakfast Burritos, Breakfast French Toast & Pancakes, Breakfast Belgian Waffles, Express Cafe", Hours- Mon - Sun:6:00 am - 2:30 pm,,,,,,,,,
Restaurants,https://www.yellowpages.com/meridian-id/mip/famous-daves-18428826#open-menu,https://www.yellowpages.com/meridian-id/mip/famous-daves-18428826,Famous Dave's,(208) 898-0325,3510 N Eagle Rd,Meridian,ID,83646,"Appetizers, Award-winning Ribs, Bar-B-Que Classics, Bar-B-Que Combos, Brisket Burgers, Famous Drinks, Feasts, Homemade Desserts, Lil' Wilbur Meals, Lunch, Salads & Soups, Sandwiches, Sides, Famous Dave's", Hours- Mon - Thu:11:00 am - 10:00 pmFri - Sat:11:00 am - 11:00 pmSun:11:00 am - 10:00 pm,,,,,,,,,
Restaurants,https://www.yellowpages.com/meridian-id/mip/fiesta-guadalajara-14349938#open-menu,https://www.yellowpages.com/meridian-id/mip/fiesta-guadalajara-14349938,Fiesta Guadalajara,(208) 884-0161,704 E Fairview Ave,Meridian,ID,83642,"Soups & Salads, Aperitivos, Enchiladas, Fiesta Tostadas, Burritos, Fiesta Guadalajara", Hours- Mon - Thu:11:00 am - 9:00 pmFri - Sat:11:00 am - 10:00 pmSun:11:00 am - 9:00 pm,,,,,,,,,
Restaurants,https://www.yellowpages.com/meridian-id/mip/garbonzos-pizza-13370941#open-menu,https://www.yellowpages.com/meridian-id/mip/garbonzos-pizza-13370941,Garbonzo's Pizza,(208) 888-0620,710 W Ustick Rd Ste 130,Meridian,ID,83646,"Popular Items, Garbonzo's Pizza", Hours- Mon - Thu:11:00 am - 9:00 pmFri - Sat:11:00 am - 10:00 pmSun:12:00 pm - 12:00 am,,,,,,,,,
Restaurants,https://www.yellowpages.com/meridian-id/mip/goodwood-barbecue-co-1137831#open-menu,https://www.yellowpages.com/meridian-id/mip/goodwood-barbecue-co-1137831,Goodwood Barbecue Co,(208) 884-1021,1140 N Eagle Rd,Meridian,ID,83642,"Deluxe Sandwiches & Burgers, Classic Favorites, Sides, Beverages, Down South Lemonades, Appetizers, Homemade Salads & Soups, Goodwood House Choices, Barbecue Platters Ribs- Poultry - Beef - Pork, Goodwood Barbecue Co", Hours- Mon - Thu:11:00 am - 9:00 pmFri - Sat:11:00 am - 10:00 pmSunClosed,,,,,,,,,
Restaurants,https://www.yellowpages.com/meridian-id/mip/johnny-carinos-1750190#open-menu,https://www.yellowpages.com/meridian-id/mip/johnny-carinos-1750190,Johnny Carino's,(208) 888-7801,3551 E Fairview Ave,Meridian,ID,83642,"Appetizers, Johnny's 15 Minute Wings, Handcrafted Pizzas, Fresh Salads & Soups, Classic Italian, Johnny's Meal for Two, Chicken Specialties, Seafood, Family Platters, Grilled Favorites, Handcrafted Burgers & Sandwiches, Desserts, Johnny Carino's", Hours- Mon - Thu:11:00 am - 10:00 pmFri - Sat:11:00 am - 11:00 pmSun:11:00 am - 10:00 pm,https://i1.ypcdn.com/blob/c997280a37560153d9f8fc27743d66247b48a8bb_1000.jpg,https://i2.ypcdn.com/blob/fc97c34b07106d18b606cf5471d4ce867e5a8074_1000.jpg,https://i2.ypcdn.com/blob/f875a67d84f6d303374a20d33db372049068582d_1000.jpg,https://i1.ypcdn.com/blob/f649b70b53fdf7d8bf1052727ce36671da098aaa_1000.jpg,https://i2.ypcdn.com/blob/f50a9647e0e35dc17b141237bfb5f7540ce58d2c_1000.jpg,https://i3.ypcdn.com/blob/f114d01b904620e90eb54158de37adb2d0cd3a90_1000.jpg,https://i3.ypcdn.com/blob/ef5016121430402f20077511c04c50e4c895006f_1000.jpg,,
Restaurants,https://www.yellowpages.com/meridian-id/mip/kahootz-steak-ale-house-10320158#open-menu,https://www.yellowpages.com/meridian-id/mip/kahootz-steak-ale-house-10320158,Kahootz Steak & Ale House,(208) 895-9861,1603 N Main St,Meridian,ID,83642,"Appetizers, Greens & Stocks, Sands & Such, Over The Fire, Over The Fire - Customize Your Steak, Entree's, Sweets, Kahootz Steak & Ale House", Hours- Mon - Sat:11:00 am - 10:00 pmSunClosed,https://i1.ypcdn.com/blob/c161001cd6397ef1ad2705ed5b513ce3b367aa6d_1000.jpg,https://i1.ypcdn.com/blob/745b619796b522aee425b7586f1429061aa904c5_1000.jpg,https://i4.ypcdn.com/blob/4fc2c23d0114f9baeb1533d0a732cd613106bea3_1000.jpg,https://i3.ypcdn.com/blob/24ba2ea0270314ac0dfd71da823b3e6aabee4c37_1000.jpg,,,,,
Restaurants,https://www.yellowpages.com/meridian-id/mip/ling-louies-asian-bar-and-grill-1326029#open-menu,https://www.yellowpages.com/meridian-id/mip/ling-louies-asian-bar-and-grill-1326029,Ling & Louie's Asian Bar and Grill,(208) 888-5000,3210 E Louise Dr,Meridian,ID,83642,"Appetizers, Soups & Salads, Noodles & Rice, Louie's Favorites, Sizzling Platters, American Comfort, From The Wok, Ling & Louie's Asian Bar and Grill", Hours- Mon - Thu:11:00 am - 10:00 pmFri - Sat:11:00 am - 11:00 pmSun:11:00 am - 10:00 pm,https://i4.ypcdn.com/blob/d9ddf58ba9c0c12abcf128781bc63efe0d88688c_1000.jpg,https://i3.ypcdn.com/blob/d2e72eb3c34eb88f67d113e42fac5b92bcc3fc07_1000.jpg,https://i1.ypcdn.com/blob/032fc38f4a26ea3f6d9519166f7155f8d789e0d4_1000.jpg,https://i4.ypcdn.com/blob/d6229bbd288d96fb2d09a43d9fdcf4313cf5afe1_1000.jpg,https://i2.ypcdn.com/blob/6f238cb442e19c522f2cbf18c795e531ae5be1a6_1000.jpg,https://i4.ypcdn.com/blob/4ad2273e642c55f6281f52c4e915c7ad0a30ecf4_1000.jpg,https://i3.ypcdn.com/blob/092e04bec8aad29818e6121ad313071627b29f29_1000.jpg,,
Restaurants,https://www.yellowpages.com/meridian-id/mip/los-betos-mexican-food-18590419#open-menu,https://www.yellowpages.com/meridian-id/mip/los-betos-mexican-food-18590419,Los Betos Mexican Food,(208) 887-4711,3143 E Magic View Dr,Meridian,ID,83642,"Breakfast Burritos, Burritos, Chimichangas, Tortas, Side Orders, Los Betos Mexican Food", Hours- Mon - Sun:Open 24 Hours- ,https://i1.ypcdn.com/blob/b9151b96d605ff6d85bd372b625e0c3628879319_1000.jpg,,,,,,,,
Restaurants,https://www.yellowpages.com/meridian-id/mip/mcdonalds-11592183#open-menu,https://www.yellowpages.com/meridian-id/mip/mcdonalds-11592183,McDonald's,(208) 888-4348,195 E Central Dr,Meridian,ID,83642,"Shari's Egg Breakfasts, Shareable Appetizers, Fresh Salads & Hearty Soups, Stacked Sandwiches, Melts & Dips, Signature Burgers & Patty Melts, McDonald's", Hours- Mon - Thu:5:00 am - 12:00 amFri - Sat:5:00 am - 1:00 amSun:6:00 am - 11:00 pm,https://i1.ypcdn.com/blob/cf3f869ccb03661b81ec513036233132642599a0_1000.jpg,https://i1.ypcdn.com/blob/2f095b6128fa0aa61aaf6db8d90b8a0b451a677a_1000.jpg,https://i4.ypcdn.com/blob/08ca20cf3db809a5dceb57c1e02c1436ec754a9f_1000.jpg,,,,,,
Restaurants,https://www.yellowpages.com/meridian-id/mip/papa-murphys-take-n-bake-pizza-1436209#open-menu,https://www.yellowpages.com/meridian-id/mip/papa-murphys-take-n-bake-pizza-1436209,Papa Murphy's Take N Bake Pizza,(208) 855-0777,1330 E Fairview Ave,Meridian,ID,83642,"Create Your Own, Specials & Deals, Specialty Pizzas, Calzones, Dairy-Free Cheese, Stuffed Pizzas, Family Friendly, Crustless Keto-Friendly Pizzas, Salads & Sides, Desserts & Drinks, Papa Murphy's Take N Bake Pizza", Hours- Mon - Sun:10:00 am - 9:00 pm,https://i1.ypcdn.com/blob/d32b86ebdceecc876732182225b62e592e17e8db_1000.jpg,https://i3.ypcdn.com/blob/c9ca723f2e0ec0876a7cfb2f0b4876e73482cc1b_1000.jpg,https://i4.ypcdn.com/blob/a0df7262ab5cace85e3b36cd7fd7b70ef6d7a54b_1000.jpg,https://i3.ypcdn.com/blob/2ebb343441bb4ea40c8758c516567c3ca84c390e_1000.jpg,https://i3.ypcdn.com/blob/6925487dadaa29c25a1240fea17d1394aad660df_1000.jpg,,,,
Restaurants,https://www.yellowpages.com/meridian-id/mip/quik-wok-restaurant-10767961#open-menu,https://www.yellowpages.com/meridian-id/mip/quik-wok-restaurant-10767961,Quik Wok Restaurant,(208) 888-3373,3055 E Fairview Ave Ste 110,Meridian,ID,83642,Quik Wok Restaurant, Hours- Mon - Thu:11:00 am - 10:00 pmFri - Sat:11:00 am - 11:00 pmSun:11:00 am - 10:00 pm,,,,,,,,,
Restaurants,https://www.yellowpages.com/meridian-id/mip/red-robin-gourmet-burgers-10550045#open-menu,https://www.yellowpages.com/meridian-id/mip/red-robin-gourmet-burgers-10550045,Red Robin Gourmet Burgers,(208) 401-0184,1475 N Eagle Rd,Meridian,ID,83642,"Appetizers, Soups, Fresh Salads, A La Carte Sides, Deliciously Dunkable Dips, Red Robin Gourmet Burgers", Hours- Mon - Thu:11:00 am - 10:00 pmFri - Sat:11:00 am - 11:00 pmSun:11:00 am - 10:00 pm,https://i3.ypcdn.com/blob/8bafb0b325e908254853882b728d2e802b462a12_1000.jpg,,,,,,,,
Restaurants,https://www.yellowpages.com/meridian-id/mip/ricks-press-room-grill-and-bar-10350591#open-menu,https://www.yellowpages.com/meridian-id/mip/ricks-press-room-grill-and-bar-10350591,Rick's Press Room Grill and Bar,(208) 288-0558,130 E Idaho Ave,Meridian,ID,83642,"Green News, Between The Bread Lines, Headliners, Extra Extras, Rick's Press Room Grill and Bar", Hours- Tue - Thu:11:30 am - 8:30 pmFri:11:30 am - 9:00 pmSat:5:00 pm - 9:00 pm,,,,,,,,,
Restaurants,https://www.yellowpages.com/meridian-id/mip/sa-wad-dee-thai-restaurant-2351304#open-menu,https://www.yellowpages.com/meridian-id/mip/sa-wad-dee-thai-restaurant-2351304,Sa-Wad-Dee Thai Restaurant,(208) 884-0701,1890 E Fairview Ave,Meridian,ID,83642,"Appetizers, Soup, Salad, House Specialties, Curry, Seafood Lovers, Chef's Recommendations, Fried Rice, Noodles, Vegetarian Soup, Entree, Combination Entrees, Dessert, Sa-Wad-Dee Thai Restaurant", Hours- Mon - Thu:11:00 am - 9:30 pmFri - Sat:11:00 am - 10:00 pmSun:12:00 pm - 8:00 pm,https://i4.ypcdn.com/blob/6d4058afc83a848783fb6ebb01fa37a1292e5d3a_1000.jpg,,,,,,,,
Restaurants,https://www.yellowpages.com/meridian-id/mip/san-francisco-sour-dough-etry-12233728#open-menu,https://www.yellowpages.com/meridian-id/mip/san-francisco-sour-dough-etry-12233728,San Francisco Sour Dough Etry,(208) 888-9623,2044 S Eagle Rd,Meridian,ID,83642,"Gourmet Salads, Hot Soups, Combos, Sandwiches, San Francisco Sour Dough Etry", Hours- Mon - Fri:11:00 am - 2:30 pm,https://i4.ypcdn.com/blob/63b0889b9d977c6a5b57dba7eb5f15349ca9e819_1000.jpg,,,,,,,,
Restaurants,https://www.yellowpages.com/meridian-id/mip/taco-bell-12088537#open-menu,https://www.yellowpages.com/meridian-id/mip/taco-bell-12088537,Taco Bell,(208) 855-0981,1523 S Eagle Rd,Meridian,ID,83642,"Main, Sauce Packets, Specialties, Tacos, Burritos, Taco Bell", Hours- Mon - Thu:7:00 am - 1:00 amFri - Sat:7:00 am - 2:00 amSun:7:00 am - 1:00 am,https://i3.ypcdn.com/blob/d5caf73291b63c4fbce91393c3bdf3fc95a0fc2e_1000.jpg,https://i4.ypcdn.com/blob/b698c467bc19a491a5a54dbc751906f7073bf228_1000.jpg,,,,,,,
Restaurants,https://www.yellowpages.com/meridian-id/mip/texas-roadhouse-15467649#open-menu,https://www.yellowpages.com/meridian-id/mip/texas-roadhouse-15467649,Texas Roadhouse,(208) 887-9401,3801 E Fairview Ave,Meridian,ID,83642,"Just For Starters, Salads, Hand-Cut Steaks, Fall-Off-The-Bone-Ribs, Texas Size Combos, Dockside Favorites, Chicken Specialties, Country Dinners, Burgers & Sandwiches, Sides & Extras, Kids & Ranger Meals, Beverages, Desserts, Texas Roadhouse", Hours- Mon - Thu:3:00 pm - 10:00 pmFri:3:00 pm - 11:00 pmSat:11:30 am - 11:00 pmSun:11:30 am - 10:00 pm,https://i3.ypcdn.com/blob/b511163a26a59e8f4c5fcaeb20d09de381182437_1000.jpg,https://i4.ypcdn.com/blob/53d78dba74b5be11515e0917ae131daa9ba02001_1000.jpg,https://i1.ypcdn.com/blob/4612cb9cb94b402e9baa53359a6eb1f9937371fe_1000.jpg,https://i3.ypcdn.com/blob/1698c207e29d1b31e1f1b20dcafc2508a40ace0d_1000.jpg,,,,,
Restaurants,https://www.yellowpages.com/meridian-id/mip/the-busted-shovel-11829862#open-menu,https://www.yellowpages.com/meridian-id/mip/the-busted-shovel-11829862,The Busted Shovel,(208) 288-2217,704 N Main St,Meridian,ID,83642,"Home Made Soups, Salads, Busted Burgers, The Busted Shovel", Hours- Mon - Sun:11:00 am - 2:00 am,,,,,,,,,
Restaurants,https://www.yellowpages.com/meridian-id/mip/the-original-sunrise-cafe-12733109#open-menu,https://www.yellowpages.com/meridian-id/mip/the-original-sunrise-cafe-12733109,The Original Sunrise Cafe,(208) 888-4517,805 N Main St,Meridian,ID,83642,The Original Sunrise Cafe, Hours- Mon - Sat:6:00 am - 2:00 pmSun:7:00 am - 2:00 pm,,,,,,,,,
Restaurants,https://www.yellowpages.com/middleton-id/mip/chaparal-sports-bar-and-grill-303031#open-menu,https://www.yellowpages.com/middleton-id/mip/chaparal-sports-bar-and-grill-303031,Chaparal Sports Bar and Grill,(208) 585-9983,3 N Dewey Ave,Middleton,ID,83644,Chaparal Sports Bar and Grill, Hours- Mon - Sun:11:00 am - 1:00 am,,,,,,,,,
Restaurants,https://www.yellowpages.com/middleton-id/mip/our-place-saloon-23507320#open-menu,https://www.yellowpages.com/middleton-id/mip/our-place-saloon-23507320,Our Place Saloon,(208) 585-2557,21 N Dewey Ave,Middleton,ID,83644,"Appetizers, Pizza, Our Place Saloon", Hours- Mon - Fri:11:00 am - 11:30 am,,,,,,,,,
Restaurants,https://www.yellowpages.com/middleton-id/mip/poppis-take-n-bake-pizza-12664790#open-menu,https://www.yellowpages.com/middleton-id/mip/poppis-take-n-bake-pizza-12664790,Poppi's Take 'n Bake Pizza,(208) 585-9122,525 S Middleton Rd,Middleton,ID,83644,"Poppi's Pizza, Create Your Own, Featured Items, Drinks, Poppi's Take 'n Bake Pizza", Hours- Mon - Thu:3:00 pm - 8:00 pmFri - Sat:3:00 pm - 9:00 pmSun:3:00 pm - 8:00 pm,,,,,,,,,
Restaurants,https://www.yellowpages.com/middleton-id/mip/the-original-sunrise-cafe-16198752#open-menu,https://www.yellowpages.com/middleton-id/mip/the-original-sunrise-cafe-16198752,The Original Sunrise Cafe,(208) 585-9700,200 E Main St,Middleton,ID,83644,"Popular Items, The Original Sunrise Cafe", Hours- Mon - Sat:6:00 am - 2:00 pmSun:7:00 am - 2:00 pm,,,,,,,,,
Restaurants,https://www.yellowpages.com/montpelier-id/mip/ranch-hand-trail-stop-2075334#open-menu,https://www.yellowpages.com/montpelier-id/mip/ranch-hand-trail-stop-2075334,Ranch Hand Trail Stop,(208) 847-1180,23200 Us Highway 30,Montpelier,ID,83254,"Ranch Hand Breakfast, Ranch Hand Famous Omelets, Ranch Hand Famous Pancakes, Ranch Hand Scrambles, Ranch Hand Breakfast Sandwiches, Ranch Hand Trail Stop", Hours- Mon - Sun:6:00 am - 10:00 pm,,,,,,,,,
Restaurants,https://www.yellowpages.com/moscow-id/mip/mingles-bar-grill-2223671#open-menu,https://www.yellowpages.com/moscow-id/mip/mingles-bar-grill-2223671,Mingles Bar & Grill,(208) 882-2050,102 S Main St,Moscow,ID,83843,"Appetizers, Greens, Minglers, Baskets, Burgers, Chompers, Lil' Chomps, Mingles Daily Specials, Mingles Bar & Grill", Hours- Mon - Fri:11:00 am - 2:00 amSat:9:00 am - 2:00 amSun:9:00 am - 1:00 am,https://i1.ypcdn.com/blob/3fef98aa8d49970ca0c09d6395cc542ff04c075a_1000.jpg,https://i2.ypcdn.com/blob/6b150cfe2a1da6031186ab6d57e48e3683a651cd_1000.jpg,https://i3.ypcdn.com/blob/462f14f2ecdabc9c4e2d5cca8a25d61c7b5bd2e6_1000.jpg,https://i1.ypcdn.com/blob/413f729e7456a777ada20abb0ea90cbe6eefb235_1000.jpg,https://i3.ypcdn.com/blob/373fd7a06f6ae153d52a19b182f45f7f6dca562d_1000.jpg,,,,
Restaurants,https://www.yellowpages.com/moscow-id/mip/moscow-alehouse-12052716#open-menu,https://www.yellowpages.com/moscow-id/mip/moscow-alehouse-12052716,Moscow Alehouse,(208) 882-2739,226 W 6th St,Moscow,ID,83843,"Appetizers, Wraps, Handhelds, Burgers, Soup & Salads, Entrées, Moscow Alehouse", Hours- Mon - Sun:11:00 am - 10:00 pm,https://i4.ypcdn.com/blob/e7f8decfb279aa7cc18ef68ab333de34d7ecbb05_1000.jpg,https://i2.ypcdn.com/blob/9af4df038f29b0ddbb4204ac9120a497f8933df1_1000.jpg,https://i2.ypcdn.com/blob/54a426099138aad4202a57d071e076fe75301a57_1000.jpg,https://i3.ypcdn.com/blob/108be00d6afcc984a64b67db403c5607dbe30f98_1000.jpg,https://i1.ypcdn.com/blob/35034b1e62fa0120458254d5ef86b527697d592e_1000.jpg,,,,
Restaurants,https://www.yellowpages.com/moscow-id/mip/papa-murphys-take-n-bake-pizza-2523961#open-menu,https://www.yellowpages.com/moscow-id/mip/papa-murphys-take-n-bake-pizza-2523961,Papa Murphy's | Take 'N' Bake Pizza,(208) 883-9508,524 W 3rd St,Moscow,ID,83843,"Create Your Own, Specials & Deals, Specialty Pizzas, Calzones, Dairy-Free Cheese, Stuffed Pizzas, Family Friendly, Crustless Keto-Friendly Pizzas, Salads & Sides, Desserts & Drinks, Papa Murphy's | Take 'N' Bake Pizza", Hours- Mon - Thu:10:00 am - 8:00 pmFri - Sat:10:00 am - 9:00 pmSun:10:00 am - 8:00 pm,https://i3.ypcdn.com/blob/d32b86ebdceecc876732182225b62e592e17e8db_1000.jpg,https://i2.ypcdn.com/blob/c9ca723f2e0ec0876a7cfb2f0b4876e73482cc1b_1000.jpg,https://i2.ypcdn.com/blob/a0df7262ab5cace85e3b36cd7fd7b70ef6d7a54b_1000.jpg,https://i1.ypcdn.com/blob/7545cd03b3171a42c52741499658b879be632ca6_1000.jpg,https://i2.ypcdn.com/blob/1d408d3fc71d188ffa0db8fa1a3959cf57d76db6_1000.jpg,https://i3.ypcdn.com/blob/6925487dadaa29c25a1240fea17d1394aad660df_1000.jpg,,,
Restaurants,https://www.yellowpages.com/mountain-home-id/mip/desert-inn-19005394#open-menu,https://www.yellowpages.com/mountain-home-id/mip/desert-inn-19005394,Desert Inn,(208) 587-9931,1500 Sunset Strip,Mountain Home,ID,83647,"Appetizers, Desert Inn Salads, Lamb, Beef, Seafood, Chicken, Add Ons, Desserts, Desert Inn",HoursDo you know the Hours-  for this business?,,,,,,,,,
Restaurants,https://www.yellowpages.com/mountain-home-id/mip/papa-murphys-take-n-bake-pizza-2237817#open-menu,https://www.yellowpages.com/mountain-home-id/mip/papa-murphys-take-n-bake-pizza-2237817,Papa Murphy's | Take 'N' Bake Pizza,(208) 580-0222,425 American Legion Blvd,Mountain Home,ID,83647,"Create Your Own, Specials & Deals, Specialty Pizzas, Calzones, Dairy-Free Cheese, Stuffed Pizzas, Family Friendly, Crustless Keto-Friendly Pizzas, Salads & Sides, Desserts & Drinks, Papa Murphy's | Take 'N' Bake Pizza", Hours- Mon - Sun:11:00 am - 8:00 pm,https://i2.ypcdn.com/blob/d32b86ebdceecc876732182225b62e592e17e8db_1000.jpg,https://i3.ypcdn.com/blob/c9ca723f2e0ec0876a7cfb2f0b4876e73482cc1b_1000.jpg,https://i1.ypcdn.com/blob/4eb312e729585093a448f76077142174754b4a2b_1000.jpg,https://i3.ypcdn.com/blob/6925487dadaa29c25a1240fea17d1394aad660df_1000.jpg,,,,,
Restaurants,https://www.yellowpages.com/mountain-home-id/mip/subway-1917017#open-menu,https://www.yellowpages.com/mountain-home-id/mip/subway-1917017,Subway,(208) 587-8386,3155 Foothills Ave,Mountain Home,ID,83647,"No Bready Bowls®, Classic Sandwiches, Drinks, Deli Heroes, Shareable Desserts, Shareable Desserts, Kids' Sides, Sides, Fresh Fit for Kids®, Subway® Series, Clubs, Breakfast, Fountain Drinks, Subway", Hours- Mon - Sun:8:00 am - 9:00 pm,https://i1.ypcdn.com/blob/e93d64b9e7edfffe23dff053840d71753704d0ba_1000.jpg,,,,,,,,
Restaurants,https://www.yellowpages.com/nampa-id/mip/applebees-16653232#open-menu,https://www.yellowpages.com/nampa-id/mip/applebees-16653232,Applebee's,(208) 461-5330,1527 Caldwell Blvd,Nampa,ID,83651,"Appetizers, Soups & Side Salads, Sizzlin' Entrees, Chicken, Pasta, Applebee's", Hours- Mon - Thu:11:00 am - 12:00 amFri - Sat:11:00 am - 1:00 amSun:11:00 am - 12:00 am,https://i3.ypcdn.com/blob/f1f0b7a87c24cc3a037c386bfc556acbe6801032_1000.jpg,https://i3.ypcdn.com/blob/a98fe047acdbaaee8750e63a58af72c5be6f0798_1000.jpg,https://i1.ypcdn.com/blob/45080b3199ca8c90761c7465852fe4e350b2576c_1000.jpg,,,,,,
Restaurants,https://www.yellowpages.com/nampa-id/mip/beefys-2137618#open-menu,https://www.yellowpages.com/nampa-id/mip/beefys-2137618,Beefy's,(208) 466-6225,1104 Garrity Blvd,Nampa,ID,83687,"Salads, Super Value Meals, Misc, Hamburgers, Sandwiches, Beefy's", Hours- Mon - Fri:10:30 am - 7:00 pm,,,,,,,,,
Restaurants,https://www.yellowpages.com/nampa-id/mip/blimpie-2411081#open-menu,https://www.yellowpages.com/nampa-id/mip/blimpie-2411081,Blimpie,(208) 467-5332,2207 N Cassia St,Nampa,ID,83651,"Limited Time Subs, Premium Subs, Classic Subs, Hot Subs, Drinks & Sides, Kids Meals, Local Favorites, Catering, Blimpie", Hours- Mon - Fri:10:30 am - 8:00 pmSat:10:30 am - 7:00 pmSun:11:00 am - 5:00 pm,https://i3.ypcdn.com/blob/fae2070b242764b9f84803544547dc3aec14191e_1000.jpg,https://i3.ypcdn.com/blob/c7b0d85b2dfb70f52a46d5a5fa71c5f393a4bbfa_1000.jpg,,,,,,,
Restaurants,https://www.yellowpages.com/nampa-id/mip/chapala-mexican-restaurant-17280403#open-menu,https://www.yellowpages.com/nampa-id/mip/chapala-mexican-restaurant-17280403,Chapala Mexican Restaurant,(208) 461-7700,525 Caldwell Blvd,Nampa,ID,83651,"Appetizers, Salads, Combinations, Specialties of the House, Tostadas, Chapala Mexican Restaurant", Hours- Mon:11:00 am - 10:00 pmTue:11:00 am - 9:00 pmWed:10:00 am - 10:00 pmThu:11:00 am - 8:00 pmFri:11:00 am - 10:00 pmSat:11:00 am - 9:00 pmSun:11:00 am - 8:00 pm,,,,,,,,,
Restaurants,https://www.yellowpages.com/nampa-id/mip/golden-corral-restaurants-2619232#open-menu,https://www.yellowpages.com/nampa-id/mip/golden-corral-restaurants-2619232,Golden Corral Restaurants,(208) 466-2883,2122 N Cassia St,Nampa,ID,83651,"Signature Salads, Pizza, Famous Fried Chicken, Sides, Beverages, Golden Corral Restaurants", Hours- Mon - Fri:11:00 am - 10:00 pmSat - Sun:7:30 am - 10:00 pm,https://i4.ypcdn.com/blob/c109a9e86f6398bf3ec01cdee7dd3048b1eade06_1000.jpg,,,,,,,,
Restaurants,https://www.yellowpages.com/nampa-id/mip/harvest-classic-deli-10588694#open-menu,https://www.yellowpages.com/nampa-id/mip/harvest-classic-deli-10588694,Harvest Classic Deli,(208) 468-2291,914 Parkcentre Way,Nampa,ID,83651,"Muffins, Traditional Breads, Deli & Speciality Items, Buns & Rolls, Pastries Donuts & Snacks, Harvest Classic Deli",HoursDo you know the Hours-  for this business?,,,,,,,,,
Restaurants,https://www.yellowpages.com/nampa-id/mip/lebarons-honker-cafe-11249674#open-menu,https://www.yellowpages.com/nampa-id/mip/lebarons-honker-cafe-11249674,LeBaron's Honker Cafe,(208) 466-1551,1210 2nd St S,Nampa,ID,83651,"Popular Items, LeBaron's Honker Cafe", Hours- Mon - Sat:6:30 am - 8:00 pm,,,,,,,,,
Restaurants,https://www.yellowpages.com/nampa-id/mip/mcdonalds-10416871#open-menu,https://www.yellowpages.com/nampa-id/mip/mcdonalds-10416871,McDonald's,(208) 467-2012,148 Caldwell Blvd,Nampa,ID,83651,"Combo Meals, Homestyle Breakfasts, McCafé, McCafé Bakery, Snacks, Sides & More, McDonald's", Hours- Mon - Sun:Open 24 Hours- ,https://i3.ypcdn.com/blob/2bf6d2237f46227bf47f58dfb4e23cc4e831f234_1000.jpg,https://i1.ypcdn.com/blob/08ca20cf3db809a5dceb57c1e02c1436ec754a9f_1000.jpg,,,,,,,
Restaurants,https://www.yellowpages.com/nampa-id/mip/ming-hao-restaurant-12140553#open-menu,https://www.yellowpages.com/nampa-id/mip/ming-hao-restaurant-12140553,Ming Hao Restaurant,(208) 463-9001,3107 Garrity Blvd,Nampa,ID,83687,"Main Entrees, Arepas, Empanadas, Picada Valluna, Kids Menu, Ming Hao Restaurant", Hours- Mon - Thu:11:00 am - 10:00 pmFri - Sat:11:00 am - 11:00 pmSun:11:00 am - 10:00 pm,,,,,,,,,
Restaurants,https://www.yellowpages.com/nampa-id/mip/outback-steakhouse-1519234#open-menu,https://www.yellowpages.com/nampa-id/mip/outback-steakhouse-1519234,Outback Steakhouse,(208) 461-4585,2011 W Karcher Rd,Nampa,ID,83651,"Appetizer, Signature Steaks, Steak Combos, Chicken, Ribs & More, Seafood Entrees, Burgers & Sandwiches, Entrée Salads, Soups & Side Items, Party Platter, Desserts, Kids Menu, Add On Mate, Outback Steakhouse", Hours- Mon - Thu:11:30 am - 9:00 pmFri - Sat:11:30 am - 10:00 pmSun:11:30 am - 9:00 pm,,,,,,,,,
Restaurants,https://www.yellowpages.com/nampa-id/mip/red-robin-gourmet-burgers-11002798#open-menu,https://www.yellowpages.com/nampa-id/mip/red-robin-gourmet-burgers-11002798,Red Robin Gourmet Burgers,(208) 463-8300,2222 N Cassia St,Nampa,ID,83651,"Appetizers, Red Robin's Finest Gourmet Burgers, Fire Grilled Gourmet Burgers, Red's Tavern Burgers, Fresh Salads, Red Robin Gourmet Burgers", Hours- Mon - Thu:11:00 am - 10:00 pmFri:11:00 am - 11:00 pmSat:11:00 am - 8:00 pm,https://i2.ypcdn.com/blob/3bd9806f9b2caee3cfcfae17fd2f66c09381fc3a_1000.jpg,,,,,,,,
Restaurants,https://www.yellowpages.com/nampa-id/mip/shanghai-restaurant-12059766#open-menu,https://www.yellowpages.com/nampa-id/mip/shanghai-restaurant-12059766,Shanghai Restaurant,(208) 466-2921,332 Caldwell Blvd,Nampa,ID,83651,"Appetizers, American, Chicken Dishes, Beef Dishes, Soups, Shanghai Restaurant", Hours- Tue - Sun:3:00 pm - 9:00 pm,,,,,,,,,
Restaurants,https://www.yellowpages.com/nampa-id/mip/smoky-mountain-pizzeria-grill-2619186#open-menu,https://www.yellowpages.com/nampa-id/mip/smoky-mountain-pizzeria-grill-2619186,Smoky Mountain Pizzeria Grill,(208) 461-7333,2007 N Cassia St,Nampa,ID,83651,"Appetizers, Salads, Burgers, Sandwiches, Pizzas, Combination's, Specialty Pizzas, Grilled Pizzas, Build Your Own, House Specialties, Calazones, Signature Pastas, Featured Pastas, Smoky Mountain Pizzeria Grill", Hours- Mon - Thu:11:00 am - 9:30 pmFri - Sat:11:00 am - 10:00 pmSun:12:00 pm - 12:00 am,,,,,,,,,
Restaurants,https://www.yellowpages.com/nampa-id/mip/subway-11191635#open-menu,https://www.yellowpages.com/nampa-id/mip/subway-11191635,Subway,(208) 466-2332,604 12th Ave Rd,Nampa,ID,83686,"Drinks, Bottled Beverages, Kids Drinks, Clubs, Deli Heroes, Fountain Drinks, Shareable Desserts, Classic Sandwiches, Chicken, Kids' Sides, Personal Pizza, No Bready Bowls®, Fresh Fit for Kids®, Subway", Hours- Mon - Sun:9:00 am - 10:00 pm,https://i3.ypcdn.com/blob/8c4853cd5e3c0365b085fb1e0556dd09223328ea_1000.jpg,https://i2.ypcdn.com/blob/2d4cbdbe8c6f988398c0b919f2939362d0fab63e_1000.jpg,https://i2.ypcdn.com/blob/0c78aa26dba2b7d5a90f9efd0369d8a4003454f5_1000.jpg,https://i1.ypcdn.com/blob/e93d64b9e7edfffe23dff053840d71753704d0ba_1000.jpg,,,,,
Restaurants,https://www.yellowpages.com/nampa-id/mip/taco-bell-2867673#open-menu,https://www.yellowpages.com/nampa-id/mip/taco-bell-2867673,Taco Bell,(208) 465-8030,1415 Caldwell Blvd,Nampa,ID,83651,"Main, Deals and Combos, Sauce Packets, Specialties, Tacos, Taco Bell", Hours- Mon - Thu:7:00 am - 1:00 amFri - Sat:7:00 am - 2:00 amSun:7:00 am - 1:00 am,https://i3.ypcdn.com/blob/497d12c2242780a6456a0e72ddcbb9f82b25d729_1000.jpg,https://i4.ypcdn.com/blob/b698c467bc19a491a5a54dbc751906f7073bf228_1000.jpg,,,,,,,
